"ROWNUM","name","adress","okrug","rayon","form_of_incorporation","submission","tip_uchrezhdeniya","vid_uchrezhdeniya","telephone","web_site","e_mail","X","Y","global_id"
"1","НОЧУ СПО юридический колледж "Третье тысячелетие"",,"Юго-Восточный административный округ","Рязанский район","Негосударственное","Негосударственное","Образовательное учреждение среднего профессионального образования","Колледж","(495) 744-84-71,744-84-71",,"ysheb.otdel@rambler.ru","37,850588","55,685852","86887487"
"2","Автономная некоммерческая организация среднего профессионального образования Хореографический колледж "Школа классического танца"","115280, Россия, г.Москва, ул. Восточная, д.4, корп.1","Южный","Даниловский","Негосударственное","Негосударственное","Образовательное учреждение среднего профессионального образования","Колледж","(495) 675-22-78,(495) 675-42-94",,"shkt@rambler.ru","37,657122","55,713902","86887624"
"3","Государственное бюджетное образовательное учреждение среднего профессионального образования города Москвы Колледж городской инфраструктуры и строительства № 1","115184 г. Москва, ул. Малая Ордынка, д. 29","Центральный административный округ","район Замоскворечье","Государственное","Городское подчинение: Управление профессионального образования","Образовательное учреждение среднего профессионального образования","Колледж","670-50-86","k01.mskcollege.ru/","01@prof.educom.ru","37,625878","55,73442","86887726"
"4","Государственное бюджетное образовательное учреждение среднего профессионального образования города Москвы "Московский технологический колледж"","115114 г. Москва, Дербеневская наб., д. 3","Южный административный округ","Даниловский район","Государственное","Городское подчинение: Управление профессионального образования","Образовательное учреждение среднего профессионального образования","Колледж","(499) 235-46-82; (499) 235-51-68; (499) 235-71-77; (499) 235-11-24; (499) 235-70-22; (499) 235-70-80; (499) 235-50-66; (499) 235-37-97; (499) 235-86-75; (499) 235-83-17; (499) 235-45-07; (499) 235-69-82; (499) 235-50-34; (499) 235-34-54; (499) 235-79-95; (499) 235-14-49","mtk.mskcollege.ru/","72@prof.educom.ru","37,654086","55,726615","86887727"
"5","Государственное бюджетное образовательное учреждение среднего профессионального образования города Москвы Колледж городского хозяйства № 64","115404 г. Москва, улица Судостроительная, д. 48","Южный административный округ","район Нагатинский Затон","Государственное","Городское подчинение: Управление профессионального образования","Образовательное учреждение среднего профессионального образования","Колледж","(499) 617-93-44; (499) 618-71-10; (499) 617-92-55; (499) 617-92-77; (499) 617-93-33; (499) 618-72-01; (499) 617-93-77; (499) 617-92-44",,"64@prof.educom.ru","37,695225","55,688223","86890348"
"6","Государственное бюджетное образовательное учреждение среднего профессионального образования города Москвы Колледж сервиса и туризма № 29","109052, г. Москва, ул. Нижегородская, д. 98","Юго-Восточный административный округ","Нижегородский район","Государственное","Городское подчинение: Управление профессионального образования","Образовательное учреждение среднего профессионального образования","Колледж","(495) 678-30-64; (495) 911-46-41; (495) 670-01-51; (495) 670-65-78; (495) 678-43-67; (495) 678-61-54; (495) 678-69-14; (495) 678-45-82; (495) 670-65-79; (495) 678-43-19; (495) 670-74-01; (495) 678-69-28; (495) 911-46-36","k29.mskcollege.ru/","29@prof.educom.ru","37,609058","55,714889","86890350"
"7","Государственное бюджетное образовательное учреждение среднего профессионального образования города Москвы Строительный колледж № 46","123182, г. Москва, ул. Академика Бочвара, д. 2, корп. 2","Северо-Западный административный округ","район Щукино","Государственное","Городское подчинение: Управление профессионального образования","Образовательное учреждение среднего профессионального образования","Колледж","947-37-50","k46.mskcollege.ru/","46@prof.educom.ru","37,432015","55,829499","86890351"
"8","Государственное бюджетное образовательное учреждение среднего профессионального образования города Москвы Колледж малого бизнеса № 67","123458, г. Москва, ул. Твардовского, д. 10, корп. 1","Северо-Западный административный округ","район Строгино","Государственное","Городское подчинение: Управление профессионального образования","Образовательное учреждение среднего профессионального образования","Колледж","(495) 756-30-56; (495) 756-30-57; (495) 756-30-58; (495) 756-30-59; (495) 756-30-60; (495) 756-30-61; (495) 756-30-62","k67.mskcollege.ru","kolledg_mb_67@bk.ru","37,394847","55,793141","86890352"
"9","Государственное бюджетное образовательное учреждение среднего профессионального образования города Москвы "Московский художественно-педагогический колледж технологий и дизайна"","129085, г. Москва, Мурманский проезд, д. 10","Северо-Восточный административный округ","Останкинский район","Государственное","Городское подчинение: Управление профессионального образования","Образовательное учреждение среднего профессионального образования","Колледж","615-24-60",,"94@prof.educom.ru","37,628239","55,803895","86890354"
"10","Государственное бюджетное образовательное учреждение среднего профессионального образования города Москвы Гуманитарный колледж информационно-библиотечных технологий № 58","105215, г. Москва, Щелковское шоссе, д. 52","Восточный административный округ","район Северное Измайлово","Государственное","Городское подчинение: Управление профессионального образования","Образовательное учреждение среднего профессионального образования","Колледж","(499) 461-91-54","k58.mskcollege.ru/","58@prof.educom.ru","37,796336","55,809568","86890360"
"11","Государственное бюджетное образовательное учреждение среднего профессионального образования города Москвы Педагогический колледж № 1 имени К.Д. Ушинского","115184 г. Москва, ул. Б. Ордынка, 47/7","Центральный административный округ","район Замоскворечье","Государственное","Городское подчинение: Управление профессионального образования","Образовательное учреждение среднего профессионального образования","Колледж","959-17-33","pk01.mskcollege.ru/","pk1@prof.educom.ru","37,625209","55,734007","86893830"
"12","Государственное бюджетное образовательное учреждение среднего профессионального образования города Москвы Педагогический колледж № 4","117418 г. Москва, улица Цюрупы, д. 14б.","Юго-Западный административный округ","район Черёмушки","Государственное","Городское подчинение: Управление профессионального образования","Образовательное учреждение среднего профессионального образования","Колледж","128-69-22","pk04.mskcollege.ru","pk4@prof.educom.ru","37,572617","55,670439","86893831"
"13","Государственное бюджетное образовательное учреждение среднего профессионального образования города Москвы Педагогический колледж № 5","123022 г. Москва, Столярный пер., д. 16","Центральный административный округ","Пресненский район","Государственное","Городское подчинение: Управление профессионального образования","Образовательное учреждение среднего профессионального образования","Колледж","(499) 255-02-27",,"PK5@prof.educom.ru","37,566239","55,76425","86893832"
"14","Государственное бюджетное образовательное учреждение среднего профессионального образования города Москвы Педагогический колледж № 6","121170, г. Москва, ул. Поклонная, д. 2","Западный административный округ","район Дорогомилово","Государственное","Городское подчинение: Управление профессионального образования","Образовательное учреждение среднего профессионального образования","Колледж","(499) 249-44-51",,"PK6@prof.educom.ru","37,531534","55,737669","86893833"
"15","Государственное бюджетное образовательное учреждение среднего профессионального образования города Москвы Педагогический колледж №7 "Маросейка"","101000 г. Москва, Армянский пер., д. 4 строение 2","Центральный административный округ","Басманный район","Государственное","Городское подчинение: Управление профессионального образования","Образовательное учреждение среднего профессионального образования","Колледж","621-73-30","pk07.mskcollege.ru/","pk7@prof.educom.ru","37,63638","55,759482","86893834"
"16","Государственное бюджетное образовательное учреждение среднего профессионального образования города Москвы Педагогический колледж № 8 "Измайлово"","105264, г. Москва,  Измайловский бульвар, дом 19","Восточный административный округ","район Измайлово","Государственное","Городское подчинение: Управление профессионального образования","Образовательное учреждение среднего профессионального образования","Колледж","(499) 163-00-71","pk08.mskcollege.ru","pk8@prof.educom.ru","37,790466","55,797735","86893835"
"17","Государственное бюджетное образовательное учреждение среднего профессионального образования города Москвы Педагогический колледж № 9 "Арбат"","121099 г. Москва, пер. Каменная слобода, д. 4, стр. 1","Центральный административный округ","район Арбат","Государственное","Городское подчинение: Управление профессионального образования","Образовательное учреждение среднего профессионального образования","Колледж","(499) 241-63-73",,"pk_9@mail.ru","37,585937","55,750604","86893836"
"18","Государственное бюджетное образовательное учреждение среднего профессионального образования города Москвы Педагогический колледж № 13 имени С.Я.Маршака","125183 г. Москва ул. Б. Академическая, д. 77-а, строение 1","Северный административный округ","район Коптево","Государственное","Городское подчинение: Управление профессионального образования","Образовательное учреждение среднего профессионального образования","Колледж","482-50-92","pk13.mskcollege.ru/","pk13@prof.educom.ru","37,551662","55,844602","86893837"
"19","Государственное бюджетное образовательное учреждение среднего профессионального образования города Москвы Педагогический колледж № 14","127282, г. Москва, ул. Грекова, д. 3 к. 1","Северо-Восточный административный округ","район Северное Медведково","Государственное","Городское подчинение: Управление профессионального образования","Образовательное учреждение среднего профессионального образования","Колледж","(499) 478-33-75; (499) 478-38-98; (499) 478-33-75; (499) 478-09-22; (499) 478-91-40; (499) 478-21-62; (499) 479-89-33; (499) 478-02-49","pk14.mskcollege.ru","PK14@prof.educom.ru","37,659394","55,88467","86893838"
"20","Государственное бюджетное образовательное учреждение среднего профессионального образования города Москвы Педагогический колледж № 15","115404 г. Москва, ул.Бирюлевская, д.28","Южный административный округ","район Бирюлёво Восточное","Государственное","Городское подчинение: Управление профессионального образования","Образовательное учреждение среднего профессионального образования","Колледж","326-81-29","pk15.mskcollege.ru/","pk15@prof.educom.ru","37,661277","55,593499","86893839"
"21","Государственное бюджетное образовательное учреждение среднего профессионального образования города Москвы Педагогический колледж № 16","129594, г. Москва, улица  Шереметьевская, дом 28","Северо-Восточный административный округ","район Марьина Роща","Государственное","Городское подчинение: Управление профессионального образования","Образовательное учреждение среднего профессионального образования","Колледж","(495) 618-01-00; (495) 619-66-64","pk16.mskcollege.ru","pk16@prof.educom.ru","37,616458","55,806403","86893840"
"22","Государственное бюджетное образовательное учреждение среднего профессионального образования города Москвы Педагогический колледж № 18 "Митино"","125368, г. Москвы, ул. Митинская, д. 45, к. 3","Северо-Западный административный округ","район Митино","Государственное","Городское подчинение: Управление профессионального образования","Образовательное учреждение среднего профессионального образования","Колледж","751-60-49","pk18.mskcollege.ru","PK18@prof.educom.ru","37,349535","55,850169","86893841"
"23","Государственное  бюджетное образовательное учреждение среднего профессионального образования города Москвы Педагогический колледж №10","109457 г. Москва, ул. Федора Полетаева, д. 2, корп. 7","Юго-Восточный административный округ","район Кузьминки","Государственное","Городское подчинение: Управление профессионального образования","Образовательное учреждение среднего профессионального образования","Колледж","(499) 175-83-16; (499) 742-44-74; (495) 379-50-85","pk10.mskcollege.ru/","pk10@prof.educom.ru","37,770481","55,713573","86893842"
"24","Государственное бюджетное образовательное учреждение среднего профессионального образования города Москвы "Московский государственный колледж моделирования обуви и маркетинга"","107564, г. Москва, ул. Краснобогатырская, д. 38","Восточный административный округ","район Богородское","Государственное","Городское подчинение: Управление профессионального образования","Образовательное учреждение среднего профессионального образования","Колледж","963-34-55","k69.mskcollege.ru/","69@prof.educom.ru","37,702604","55,810354","86893871"
"25","Государственное бюджетное образовательное учреждение среднего профессионального образования города Москвы "Московский государственный колледж книжного бизнеса и информационных технологий"","125130, г. Москва, ул. З. и А. Космодемьянских, д. 19","Северный административный округ","Войковский район","Государственное","Городское подчинение: Управление профессионального образования","Образовательное учреждение среднего профессионального образования","Колледж","450-03-23",,"68@prof.educom.ru","37,51632","55,823067","86930660"
"26","Государственное бюджетное образовательное учреждение среднего профессионального образования города Москвы "Колледж полиции"","125363, г. Москва, улица Фабрициуса, дом 26","Северо-Западный административный округ","район Южное Тушино","Государственное","Городское подчинение: Управление профессионального образования","Образовательное учреждение среднего профессионального образования","Колледж","(499)492-70-01,(499) 492-70-01",,"police.coll@yandex.ru","37,440805","55,843992","86930671"
"27","Государственное бюджетное образовательное учреждение среднего профессионального образования города Москвы "Юридический колледж"","115569, Москва, Шипиловская ул., д. 17, к. 1, стр. 1","Южный административный округ","район Орехово-Борисово Северное","Государственное","Городское подчинение: Управление профессионального образования","Образовательное учреждение среднего профессионального образования","Колледж","(495)392-72-44,(495) 392-72-44",,"se@lawcol.ru","37,708019","55,619849","86930672"
"28","Государственное бюджетное образовательное учреждение среднего профессионального образования города Москвы Политехнический колледж № 2","119121 г. Москва, ул.Тимура Фрунзе, д. 28","Центральный административный округ","район Хамовники","Государственное","Городское подчинение: Управление профессионального образования","Образовательное учреждение среднего профессионального образования","Колледж","(499) 253-59-31",,"02@prof.educom.ru","37,694982","55,779942","86930684"
"29","Государственное бюджетное образовательное учреждение среднего профессионального образования города Москвы Колледж сферы услуг № 3","109029 г. Москва, ул. Б.Калитниковская, д. 36, стр. 1","Центральный административный округ","Таганский район","Государственное","Городское подчинение: Управление профессионального образования","Образовательное учреждение среднего профессионального образования","Колледж","670-50-81",,"03@prof.educom.ru","37,659488","55,786918","86930685"
"30","Государственное бюджетное образовательное учреждение среднего профессионального образования города Москвы Колледж малого бизнеса № 4","115054 г. Москва, ул. Дубининская, д. 25, стр. 1","Центральный административный округ","район Замоскворечье","Государственное","Городское подчинение: Управление профессионального образования","Образовательное учреждение среднего профессионального образования","Колледж","(499) 235-46-57","k04.mskcollege.ru","04@prof.educom.ru","37,637795","55,726436","86930686"
"31","Государственное бюджетное образовательное учреждение среднего профессионального образования города Москвы Колледж легкой промышленности № 5","127051, г. Москва, 3-ий Колобовский пер., д. 8, стр. 2","Центральный административный округ","Тверской район","Государственное","Городское подчинение: Управление профессионального образования","Образовательное учреждение среднего профессионального образования","Колледж","699-54-93",,"05@prof.educom.ru","37,618878","55,769644","86930687"
"32","Государственное бюджетное образовательное учреждение среднего профессионального образования города Москвы Коммерческо-банковский колледж № 6","123557 г. Москва, ул. Пресненский Вал, д. 15, стр. 1","Центральный административный округ","Красносельский район","Государственное","Городское подчинение: Управление профессионального образования","Образовательное учреждение среднего профессионального образования","Колледж","(499) 253-59-31","k06.mskcollege.ru","06@prof.educom.ru","37,638819","55,774272","86930688"
"33","Государственное бюджетное образовательное учреждение среднего профессионального образования города Москвы Колледж архитектуры и строительства № 7","125315, г. Москва, ул. Усиевича, д. 31","Северный административный округ","район Аэропорт","Государственное","Городское подчинение: Управление профессионального образования","Образовательное учреждение среднего профессионального образования","Колледж","611-54-38","k07.mskcollege.ru/","07@prof.educom.ru","37,51802","55,807643","86930689"
"34","Государственное бюджетное образовательное учреждение среднего профессионального образования города Москвы Колледж автомобильного транспорта № 9","127591 г. Москва, Керамический пр-д, д.59","Северный административный округ","Алтуфьевский район","Государственное","Городское подчинение: Управление профессионального образования","Образовательное учреждение среднего профессионального образования","Колледж","(499) 901-48-00","k09.mskcollege.ru","09@prof.educom.ru","37,581893","55,803662","86930690"
"35","Государственное бюджетное образовательное учреждение среднего профессионального образования города Москвы Колледж сферы услуг № 10","127434, г. Москва, Дмитровское шоссе, д. 11 А","Северный административный округ","Тимирязевский район","Государственное","Городское подчинение: Управление профессионального образования","Образовательное учреждение среднего профессионального образования","Колледж","(499) 488-33-00","k10.mskcollege.ru/","10@prof.educom.ru","37,552825","55,859851","86930691"
"36","Государственное бюджетное образовательное учреждение среднего профессионального образования города Москвы Строительный колледж № 12","129337 г. Москва. Хибинский проезд, д. 10","Северо-Восточный административный округ","Ярославский район","Государственное","Городское подчинение: Управление профессионального образования","Образовательное учреждение среднего профессионального образования","Колледж","(499) 183-45-56; (499) 183-33-47; (499) 183-89-04; (499) 183-41-10; (499) 188-44-81",,"12@prof.educom.ru","37,580925","55,816407","86930692"
"37","Государственное бюджетное образовательное учреждение среднего профессионального образования города Москвы Технологический Колледж №14","127282, г. Москва, ул. Тихомирова, д. 10, к. 1","Северо-Восточный административный округ","район Ростокино","Государственное","Городское подчинение: Управление профессионального образования","Образовательное учреждение среднего профессионального образования","Колледж","689-30-26",,"14@prof.educom.ru","37,604648","55,795397","86930693"
"38","Государственное бюджетное образовательное учреждение среднего профессионального образования города Москвы Колледж предпринимательства № 15","129281 г. Москва, Староватутинский проезд, д. 6","Северо-Восточный административный округ","Бабушкинский район","Государственное","Городское подчинение: Управление профессионального образования","Образовательное учреждение среднего профессионального образования","Колледж","(499) 184-21-27; (499) 184-20-77",,"15@prof.educom.ru","37,67262","55,874467","86930694"
"39","Государственное бюджетное образовательное учреждение среднего профессионального образования города Москвы Колледж по подготовке социальных работников № 16","127015 г. Москва, улица  Большая Новодмитровская, дом  63","Северо-Восточный административный округ","Бутырский район","Государственное","Городское подчинение: Управление профессионального образования","Образовательное учреждение среднего профессионального образования","Колледж","(499) 760-89-97",,"16@prof.educom.ru","37,583831","55,805136","86930695"
"40","Государственное бюджетное образовательное учреждение среднего профессионального образования города Москвы Колледж архитектуры и менеджмента в строительстве № 17","105203, город  Москва, 12-я Парковая улица,  дом 13/96  стр. 1-2","Восточный административный округ","район Восточное Измайлово","Государственное","Городское подчинение: Управление профессионального образования","Образовательное учреждение среднего профессионального образования","Колледж","963-27-57",,"17@prof.educom.ru","37,712347","55,789603","86930696"
"41","Государственное бюджетное образовательное учреждение среднего профессионального образования города Москвы Колледж ландшафтного дизайна № 18","105568, г. Москва, ул. Чечулина, д. 3, корп. 1","Восточный административный округ","район Ивановское","Государственное","Городское подчинение: Управление профессионального образования","Образовательное учреждение среднего профессионального образования","Колледж","(499) 164-69-52","k18.mskcollege.ru","18@prof.educom.ru","37,823353","55,780385","86930697"
"42","Государственное бюджетное образовательное учреждение среднего профессионального образования города Москвы Политехнический колледж № 19","111555, г. Москва, Напольный пр-д, д. 9","Восточный административный округ","район Ивановское","Государственное","Городское подчинение: Управление профессионального образования","Образовательное учреждение среднего профессионального образования","Колледж","(499) 369-05-11; (499) 369-50-06; (499) 369-53-50","k19.mskcollege.ru/","19@prof.educom.ru","37,705414","55,799899","86930698"
"43","Государственное бюджетное образовательное учреждение среднего профессионального образования города Москвы Колледж автомотизации и информационных технологий № 20","105037, г. Москва, ул. 1-я Парковая,  д. 12","Восточный административный округ","район Измайлово","Государственное","Городское подчинение: Управление профессионального образования","Образовательное учреждение среднего профессионального образования","Колледж","(499) 163-40-83",,"20@prof.educom.ru","37,780301","55,799452","86930699"
"44","Государственное бюджетное образовательное учреждение среднего профессионального образования города Москвы Технологический колледж № 21","107143 г. Москва, ул. Вербная, д. 4, стр. 1","Восточный административный округ","район Метрогородок","Государственное","Городское подчинение: Управление профессионального образования","Образовательное учреждение среднего профессионального образования","Колледж","(499) 160-14-33; (499) 160-03-30","k21.mskcollege.ru","21@prof.educom.ru","37,77616","55,824377","86930700"
"45","Государственное бюджетное образовательное учреждение среднего профессионального образования города Москвы Экономико-технологический Колледж № 22","105203, г. Москва, улица 14-я Парковая, д. 4 Б","Восточный административный округ","район Восточное Измайлово","Государственное","Городское подчинение: Управление профессионального образования","Образовательное учреждение среднего профессионального образования","Колледж","465-15-03",,"22@prof.educom.ru","37,813343","55,793758","86930701"
"46","Государственное бюджетное образовательное  учреждение среднего профессионального образования города Москвы Колледж индустрии гостеприимства и менеджмента № 23","107564, г. Москва, Погонный проезд,  д. 5","Восточный административный округ","район Богородское","Государственное","Городское подчинение: Управление профессионального образования","Образовательное учреждение среднего профессионального образования","Колледж","963-15-53",,"23@prof.educom.ru","37,704536","55,821966","86930702"
"47","Государственное бюджетное образовательное учреждение среднего профессионального образования города Москвы Строительный колледж № 26","109559, г. Москва, ул. Цимлянская, д. 7, стр. 1","Юго-Восточный административный округ","район Люблино","Государственное","Городское подчинение: Управление профессионального образования","Образовательное учреждение среднего профессионального образования","Колледж","(495) 673-51-90; (495) 673-30-00; (495) 673-15-96; (495) 673-34-93; (495) 673-14-90","k26.mskcollege.ru/","26@prof.educom.ru","37,750976","55,69491","86930703"
"48","Государственное бюджетное образовательное учреждение среднего профессионального образования города Москвы Колледж автоматизации и радиоэлектроники № 27 имени П.М.Вострухина","109428, г. Москва, Рязанский проспект, д. 8, стр. 1, стр. 2","Юго-Восточный административный округ","Рязанский район","Государственное","Городское подчинение: Управление профессионального образования","Образовательное учреждение среднего профессионального образования","Колледж","(495) 355-24-38; (495) 355-24-82; (495) 355-25-00","k27.mskcollege.ru/","27@prof.educom.ru","37,741592","55,737994","86930704"
"49","Государственное бюджетное образовательное учреждение среднего профессионального образования города Москвы Строительный колледж № 30","115419 г. Москва, ул. Академика Петровского,  д.10","Южный административный округ","Донской район","Государственное","Городское подчинение: Управление профессионального образования","Образовательное учреждение среднего профессионального образования","Колледж","(499) 236-73-46","k30.mskcollege.ru","colledge@ck-30.ru","37,64198","55,593694","86930705"
"50","Государственное бюджетное образовательное учреждение среднего профессионального образования города Москвы Политехнический колледж № 31","115280 г. Москва, ул. Автозаводская д. 25","Южный административный округ","Даниловский район","Государственное","Городское подчинение: Управление профессионального образования","Образовательное учреждение среднего профессионального образования","Колледж","(495) 952-10-60","k31.mskcollege.ru/","31@prof.educom.ru","37,630548","55,702664","86930706"
"51","Государственное бюджетное образовательное учреждение среднего профессионального образования города Москвы Колледж сферы услуг № 32","119071 г. Москва, ул. Орджоникидзе, д. 15, стр. 1","Южный административный округ","Донской район","Государственное","Городское подчинение: Управление профессионального образования","Образовательное учреждение среднего профессионального образования","Колледж","(495) 236-72-46","k32.mskcollege.ru","32@prof.educom.ru","37,588569","55,709424","86930707"
"52","Государственное бюджетное образовательное учреждение среднего профессионального образования города Москвы Пищевой колледж № 33","115404 г. Москва, ул. 6-ая Радиальная, д. 10","Южный административный округ","район Царицыно","Государственное","Городское подчинение: Управление профессионального образования","Образовательное учреждение среднего профессионального образования","Колледж","327-52-35","k33.mskcollege.ru/","33@prof.educom.ru","37,664969","55,608277","86930708"
"53","Государственное бюджетное образовательное учреждение среднего профессионального образования города Москвы Технологический колледж № 34","115230 г. Москва, ул. Нагатинская д. 4, к. 1","Южный административный округ","район Нагатино-Садовники","Государственное","Городское подчинение: Управление профессионального образования","Образовательное учреждение среднего профессионального образования","Колледж","633-29-08",,"34@prof.educom.ru","37,623201","55,629124","86930709"
"54","Государственное бюджетное образовательное учреждение среднего профессионального образования города Москвы Финансовый колледж № 35","115404 г. Москва, ул. Липецкая, д. 2, корп. 13","Южный административный округ","район Бирюлёво Восточное","Государственное","Городское подчинение: Управление профессионального образования","Образовательное учреждение среднего профессионального образования","Колледж","327-50-91",,"35@prof.educom.ru","37,667797","55,604863","86930710"
"55","Государственное бюджетное образовательное учреждение среднего профессионального образования города Москвы Колледж декоративно-прикладного искусства № 36 имени Карла Фаберже","115407 г. Москва, ул. Якорная д. 6, стр. 1","Южный административный округ","район Нагатинский Затон","Государственное","Городское подчинение: Управление профессионального образования","Образовательное учреждение среднего профессионального образования","Колледж","391-16-69","k36.mskcollege.ru/","36@prof.educom.ru","37,662248","55,603028","86930711"
"56","Государственное бюджетное образовательное учреждение среднего профессионального образования города Москвы Колледж гостиничного хозяйства "Царицыно" № 37","115569 г. Москва, пр. Шипиловский, д. 37, к. 1","Южный административный округ","район Орехово-Борисово Северное","Государственное","Городское подчинение: Управление профессионального образования","Образовательное учреждение среднего профессионального образования","Колледж","391-23-33",,"37@prof.educom.ru","37,696297","55,613439","86930712"
"57","Государственное бюджетное образовательное учреждение среднего профессионального образования города Москвы "Колледж градостроительства и сервиса № 38"","117321, г. Москва, ул. Профсоюзная, д. 154, корпус 7","Юго-Западный административный округ","район Тёплый Стан","Государственное","Городское подчинение: Управление профессионального образования","Образовательное учреждение среднего профессионального образования","Колледж","(495) 713-17-52",,"38@prof.educom.ru","37,498022","55,624274","86930713"
"58","Государственное бюджетное образовательное учреждение среднего профессионального образования города Москвы Политехнический колледж № 39","117036, город Москва, улица  Дмитрия Ульянова, дом 26","Юго-Западный административный округ","Академический район","Государственное","Городское подчинение: Управление профессионального образования","Образовательное учреждение среднего профессионального образования","Колледж","(499) 127-69-95; (499) 127-10-03; (499) 176-10-70; (499) 127-12-70; (499) 127-33-95; (499) 123-63-91; (499) 127-11-12",,"39@prof.educom.ru","37,577458","55,685746","86930714"
"59","Государственное бюджетное образовательное учреждение среднего профессионального образования города Москвы Строительный колледж № 41","121351 г. Москва ул. Бобруйская д. 7","Западный административный округ","район Кунцево","Государственное","Городское подчинение: Управление профессионального образования","Образовательное учреждение среднего профессионального образования","Колледж","417-07-24","k41.mskcollege.ru/","41@prof.educom.ru","37,261752","55,61172","86930715"
"60","Государственное бюджетное образовательное учреждение среднего профессионального образования города Москвы Политехнический колледж № 42","121471 г. Москва, ул. Гродненская д. 5","Западный административный округ","Можайский район","Государственное","Городское подчинение: Управление профессионального образования","Образовательное учреждение среднего профессионального образования","Колледж","(499) 749-88-58",,"42@prof.educom.ru","37,385599","55,723465","86930716"
"61","Государственное бюджетное образовательное учреждение среднего профессионального образования города Москвы Колледж сферы услуг № 44","119607, г. Москва, ул. Раменки, д. 4","Западный административный округ","район Раменки","Государственное","Городское подчинение: Управление профессионального образования","Образовательное учреждение среднего профессионального образования","Колледж","(499) 141-00-94",,"44@prof.educom.ru","37,395307","55,73716","86930717"
"62","Государственное бюджетное образовательное учреждение среднего профессионального образования города Москвы Политехнический колледж № 47 имени В.Г. Федорова","125371, г. Москва, Волоколамское шоссе, дом 112, корп. 3","Северо-Западный административный округ","район Покровское-Стрешнево","Государственное","Городское подчинение: Управление профессионального образования","Образовательное учреждение среднего профессионального образования","Колледж","(495) 497-65-87; (495) 492-64-75; (495) 493-92-65; (495) 493-33-73","k47.mskcollege.ru/","47@prof.educom.ru","37,443014","55,838591","86930718"
"63","Государственное бюджетное образовательное учреждение среднего профессионального образования города Москвы Колледж малого бизнеса № 48","123308, г. Москва, ул. Мневники, д. 4","Северо-Западный административный округ","район Хорошёво-Мнёвники","Государственное","Городское подчинение: Управление профессионального образования","Образовательное учреждение среднего профессионального образования","Колледж","(495) 948-05-90",,"48@prof.educom.ru","37,412681","55,860501","86930719"
"64","Государственное бюджетное образовательное учреждение среднего профессионального образования города Москвы Технологический колледж № 49","124527, г.  Москва, Зеленоград, корп. 855","Зеленоградский административный округ","район Крюково","Государственное","Городское подчинение: Управление профессионального образования","Образовательное учреждение среднего профессионального образования","Колледж","(499) 731-90-98; (499) 732-93-50; (499) 732-92-88","k49.mskcollege.ru","49@prof.educom.ru","37,196797","55,974273","86930720"
"65","Государственное бюджетное образовательное учреждение среднего профессионального образования города Москвы Политехнический Колледж № 50","124460, г. Москва, Зеленоград, 3-й Западный пр-д, д. 4","Зеленоградский административный округ","район Матушкино","Государственное","Городское подчинение: Управление профессионального образования","Образовательное учреждение среднего профессионального образования","Колледж","(499) 736-56-03","k50.mskcollege.ru","50@prof.educom.ru","37,502878","55,871116","86930721"
"66","Государственное бюджетное образовательное учреждение среднего профессионального образования города Москвы Железнодорожный колледж № 52","129090 г. Москва, ул. Каланчевская, д. 26, стр. 1","Центральный административный округ","Красносельский район","Государственное","Городское подчинение: Управление профессионального образования","Образовательное учреждение среднего профессионального образования","Колледж","680-34-21","k52.mskcollege.ru/","52@prof.educom.ru","37,720206","55,809887","86930722"
"67","Государственное бюджетное образовательное учреждение среднего профессионального образования города Москвы Колледж метростроя № 53 имени Героя Советского Союза М.Ф. Панова","129336, г. Москва,  Стартовая ул., д. 1, корп. 2","Северо-Восточный административный округ","Лосиноостровский район","Государственное","Городское подчинение: Управление профессионального образования","Образовательное учреждение среднего профессионального образования","Колледж","474-41-65","k53.mskcollege.ru/","53@prof.educom.ru","37,707966","55,886587","86930723"
"68","Государственное бюджетное образовательное учреждение среднего профессионального образования города Москвы Колледж связи № 54","115172 г. Москва, ул. Большие Каменщики, д. 7","Центральный административный округ","Басманный район","Государственное","Городское подчинение: Управление профессионального образования","Образовательное учреждение среднего профессионального образования","Колледж","(499) 261-03-51",,"54@prof.educom.ru","37,654979","55,738864","86930724"
"69","Государственное бюджетное образовательное учреждение среднего профессионального образования города Москвы Электромеханический колледж № 55","125438 г. Москва, ул. Михалковская, д. 52","Центральный административный округ","Басманный район","Государственное","Городское подчинение: Управление профессионального образования","Образовательное учреждение среднего профессионального образования","Колледж","601-46-78",,"55@prof.educom.ru","37,510625","55,838458","86930726"
"70","Государственное бюджетное образовательное учреждение среднего профессионального образования города Москвы Технический пожарно-спасательный коллежд № 57","125080 г. Москва, Светлый проезд, д. 2а","Северный административный округ","район Сокол","Государственное","Городское подчинение: Управление профессионального образования","Образовательное учреждение среднего профессионального образования","Колледж","(499) 123-33-42; (499) 123-05-29; (499) 123-12-36; (499) 123-11-34","k57.mskcollege.ru/","57@prof.educom.ru","37,631459","55,67996","86930727"
"71","Государственное бюджетное образовательное учреждение среднего профессионального образования города Москвы Театрально-художественный колледж № 60","125315 г. Москва, пр. Амбулаторный 1-й, д. 8, стр. 2","Северный административный округ","район Аэропорт","Государственное","Городское подчинение: Управление профессионального образования","Образовательное учреждение среднего профессионального образования","Колледж","(499) 152-37-60","k60.mskcollege.ru/","60@prof.educom.ru","37,533739","55,811798","86930728"
"72","Государственное бюджетное образовательное учреждение среднего профессионального образования города Москвы Колледж музыкально-театрального искусства № 61","111672, г. Москва, Суздальская ул., д. 40 Б","Восточный административный округ","район Новокосино","Государственное","Городское подчинение: Управление профессионального образования","Образовательное учреждение среднего профессионального образования","Колледж","702-33-26","k61.mskcollege.ru/","61@prof.educom.ru","37,874848","55,744822","86930729"
"73","Государственное бюджетное образовательное учреждение среднего профессионального образования города Москвы "Московский политехнический колледж"","111250, Москва, Красноказарменная ул., д. 10-а","Юго-Восточный административный округ","район Лефортово","Государственное","Городское подчинение: Управление профессионального образования","Образовательное учреждение среднего профессионального образования","Колледж","(495) 361-07-01","mpc.mskcollege.ru","76@prof.educom.ru","37,705802","55,741345","86930731"
"74","Государственное бюджетное образовательное учреждение среднего профессионального образования города Москвы "Московский политехнический колледж имени Моссовета"","125040 г. Москва, ул. Расковой, д. 4","Северный административный округ","район Беговой","Государственное","Городское подчинение: Управление профессионального образования","Образовательное учреждение среднего профессионального образования","Колледж","614-48-28","k66.mskcollege.ru","mossovet@prof.educom.ru","37,571611","55,785414","86930733"
"75","Государственное бюджетное образовательное учреждение среднего профессионального образования города Москвы Московский технико-экономический колледж","105082 г. Москва, Переведеновский пер., д. 2, стр. 4","Центральный административный округ","Басманный район","Государственное","Городское подчинение: Управление профессионального образования","Образовательное учреждение среднего профессионального образования","Колледж","(499) 261-14-86",,"63@prof.educom.ru","37,737288","55,782461","86930735"
"76","Государственное бюджетное образовательное учреждение среднего профессионального образования города Москвы "Московский колледж управления и новых технологий"","г. Москва, ул. Генерала Белова, д. 6","Южный административный округ","район Зябликово","Государственное","Городское подчинение: Управление профессионального образования","Образовательное учреждение среднего профессионального образования","Колледж","(496) 574-48-40; (496) 577-71-91",,"91@prof.educom.ru","37,715756","55,621826","86930740"
"77","Государственное бюджетное образовательное учреждение среднего профессионального образования города Москвы "Московский радиотехнический колледж имени А.А.Расплетина"","123022 г. Москва, ул. Большая Декабрьская, дом 5","Центральный административный округ","Пресненский район","Государственное","Городское подчинение: Управление профессионального образования","Образовательное учреждение среднего профессионального образования","Колледж","(499)252-11-84 ,(499) 252-11-84",,"mrtc@mail.ru","37,558469","55,765359","86930741"
"78","Государственное бюджетное образовательное учреждение среднего профессионального образования города Москвы "Московский автомобильно-дорожный колледж им. А.А. Николаева"","105082, г. Москва, ул. Бакунинская, д. 81/55","Центральный административный округ","Басманный район","Государственное","Городское подчинение: Управление профессионального образования","Образовательное учреждение среднего профессионального образования","Колледж","(499)265-37-44",,"87@prof.educom.ru","37,694314","55,7812","86930742"
"79","Государственное бюджетное образовательное учреждение среднего профессионального образования города Москвы "Московский колледж градостроительства и предпринимательства"","129336, г. Москва, Анадырский проезд, д. 79, стр.1-2","Северо-Восточный административный округ","Лосиноостровский район","Государственное","Городское подчинение: Управление профессионального образования","Образовательное учреждение среднего профессионального образования","Колледж","(499) 188-62-10",,"89@prof.educom.ru","37,713308","55,884094","86930743"
"80","Государственное бюджетное образовательное учреждение среднего профессионального образования города Москвы "Московский издательско-полиграфический колледж имени Ивана Федорова"","129337, г. Москва, Ярославское шоссе, д. 5","Северо-Восточный административный округ","Ярославский район","Государственное","Городское подчинение: Управление профессионального образования","Образовательное учреждение среднего профессионального образования","Колледж","(499) 188-21-47",,"mipk@rambler.ru","37,677943","55,852897","86930744"
"81","Гсударственное бюджетное образовательное учреждение среднего профессионального образования города Москвы "Московский колледж профессиональных технологий"","109382, г. Москва, ул. Люблинская д. 56/2","Юго-Восточный административный округ","район Люблино","Государственное","Городское подчинение: Управление профессионального образования","Образовательное учреждение среднего профессионального образования","Колледж","(495)351-39-12",,"mkpt-spo@mail.ru","37,738354","55,676394","86930745"
"82","Государственное бюджетное образовательное учреждение среднего профессионального образования города Москвы «Московский техникум информатики и вычислительной техники»","123154, г. Москва, улица Народного Ополчения, дом 31","Северо-Западный административный округ","район Хорошёво-Мнёвники","Государственное","Городское подчинение: Управление профессионального образования","Образовательное учреждение среднего профессионального образования","Колледж","(499)197-18-66,(499) 197 - 18 - 66",,"92@prof.educom.ru","37,48085","55,784815","86930746"
"83","Государственное бюджетное образовательное учреждение среднего профессионального образования города Москвы "Московский государственный колледж электромеханики и информационных технологий"","115446, г. Москва, ул. Академика Миллионщикова, 20","Южный административный округ","район Нагатино-Садовники","Государственное","Городское подчинение: Управление профессионального образования","Образовательное учреждение среднего профессионального образования","Колледж","(499)612-15-97 ,(499) 612-15-97",,"88@prof.educom.ru","37,644434","55,666183","86930748"
"84","Государственное бюджетное образовательное учреждение среднего профессионального образования города Москвы "Московский колледж авиационного моторостроения"","105118, г. Москва, проспект Буденного, д. 18","Восточный административный округ","район Соколиная Гора","Государственное","Городское подчинение: Управление профессионального образования","Образовательное учреждение среднего профессионального образования","Колледж","(499)785-89-25,(499) 785 8925",,"mkam-spo@mail.ru","37,727907","55,768345","86930749"
"85","Государственное автономное образовательное учреждение среднего профессионального образования города Москвы Технологический колледж № 28","109383, г. Москва, ул. Полбина, д. 72","Юго-Восточный административный округ","район Печатники","Государственное","Городское подчинение: Управление профессионального образования","Образовательное учреждение среднего профессионального образования","Колледж","(495) 673-54-22","k28.mskcollege.ru","28@prof.educom.ru","37,719819","55,742623","86930755"
"86","Государственное автономное образовательное учреждение среднего профессионального образования города Москвы Технологический колледж № 24","105484, г. Москва,  ул. 16-я Парковая,  д. 20","Восточный административный округ","район Измайлово","Государственное","Городское подчинение: Управление профессионального образования","Образовательное учреждение среднего профессионального образования","Колледж","(499) 461-52-19","k24.mskcollege.ru/","24@prof.educom.ru","37,831163","55,804375","86930756"
"87","Государственное автономное образовательное учреждение среднего профессионального образования города Москвы Колледж предпринимательства №11","125438, г. Москва, ул. Онежская, дом 3","Северный административный округ","Головинский район","Государственное","Городское подчинение: Управление профессионального образования","Образовательное учреждение среднего профессионального образования","Колледж","(499) 150-55-02",,"info@kp11.ru","37,501396","55,848777","86930757"
"88","Государственное автономное образовательное учреждение среднего профессионального образования города Москвы Политехнический колледж № 8 имени дважды Героя Советского Союза И.Ф. Павлова","125284, г. Москва, 1-й Боткинский проезд, дом 7а","Северный административный округ","район Беговой","Государственное","Городское подчинение: Управление профессионального образования","Образовательное учреждение среднего профессионального образования","Колледж","(495) 485-72-18; (495) 485-72-22",,"08@prof.educom.ru","37,522283","55,821552","86930922"
"89","Государственное бюджетное образовательное учреждение среднего профессионального образования города Москвы "Московский технический колледж"","г. Москва, ул. Генерала Белова, д. 4","Южный административный округ","район Орехово-Борисово Северное","Государственное","Городское подчинение: Управление профессионального образования","Образовательное учреждение среднего профессионального образования","Колледж","(499)235-46-82","mtk.mskcollege.ru/","86@prof.educom.ru","37,714966","55,623427","86930936"
"90","Государственное бюджетное образовательное учреждение города Москвы "Московское среднее специальное училище олимпийского резерва №2 (техникум)" Департамента физической культуры и спорта города Москвы",,"Западный административный округ","район Фили-Давыдково","Государственное","Департамент физической культуры и спорта","Образовательное учреждение среднего профессионального образования","Колледж","(499) 144-17-17",,"uor2@mossport.ru","37,456499","55,735856","86931235"
"91","Государственное бюджентное образовательное учреждение города Москвы "Московское среднее специальное училище олимпийского резерва №3 (техникум)" Департамента физической культуры и спорта города Москвы",,"Восточный административный округ","район Соколиная Гора","Государственное","Департамент физической культуры и спорта","Образовательное учреждение среднего профессионального образования","Колледж","(495) 369-09-11,(495) 369-28-26",,"uor3@mossport.ru","37,732396","55,786997","86931236"
"92","Государственное бюджетное образовательное учреждение среднего профессионального образования города Москвы Спортивно-педагогический колледж Департамента физической культуры и спорта города Москвы",,"Южный административный округ","район Чертаново Южное","Государственное","Департамент физической культуры и спорта","Образовательное учреждение среднего профессионального образования","Колледж","(495) 387-50-11",,"spk@mossport.ru","37,601841","55,601944","86931237"
"93","Государственное бюджетное образовательное учреждение среднего профессионального образования города Москвы Колледж малого бизнеса № 4","115054 г. Москва, ул. Дубининская, д. 25, стр. 1","Центральный административный округ","район Замоскворечье","Государственное","Городское подчинение: Управление профессионального образования","Образовательное учреждение среднего профессионального образования","Колледж","(499) 235-46-57","k04.mskcollege.ru","04@prof.educom.ru","37,695467","55,777017","87028632"
"94","Государственное бюджетное образовательное учреждение среднего профессионального образования города Москвы Колледж сферы услуг № 10","127434, г. Москва, Дмитровское шоссе, д. 11 А","Северный административный округ","Тимирязевский район","Государственное","Городское подчинение: Управление профессионального образования","Образовательное учреждение среднего профессионального образования","Колледж","(499) 488-33-00","k10.mskcollege.ru/","10@prof.educom.ru","37,552662","55,860323","87028633"
"95","Государственное бюджетное образовательное учреждение среднего профессионального образования города Москвы Колледж сферы услуг № 10","127434, г. Москва, Дмитровское шоссе, д. 11 А","Северный административный округ","Тимирязевский район","Государственное","Городское подчинение: Управление профессионального образования","Образовательное учреждение среднего профессионального образования","Колледж","(499) 488-33-00","k10.mskcollege.ru/","10@prof.educom.ru","37,49783","55,802315","87028634"
"96","Государственное бюджетное образовательное учреждение среднего профессионального образования города Москвы Колледж сферы услуг № 10","127434, г. Москва, Дмитровское шоссе, д. 11 А","Северный административный округ","Тимирязевский район","Государственное","Городское подчинение: Управление профессионального образования","Образовательное учреждение среднего профессионального образования","Колледж","(499) 488-33-00","k10.mskcollege.ru/","10@prof.educom.ru","37,572068","55,816428","87028635"
"97","Государственное бюджетное образовательное учреждение среднего профессионального образования города Москвы Колледж сферы услуг № 10","127434, г. Москва, Дмитровское шоссе, д. 11 А","Северный административный округ","Тимирязевский район","Государственное","Городское подчинение: Управление профессионального образования","Образовательное учреждение среднего профессионального образования","Колледж","(499) 488-33-00","k10.mskcollege.ru/","10@prof.educom.ru","37,535425","55,810522","87028636"
"98","Государственное бюджетное образовательное учреждение среднего профессионального образования города Москвы Колледж сферы услуг № 10","127434, г. Москва, Дмитровское шоссе, д. 11 А","Северный административный округ","Тимирязевский район","Государственное","Городское подчинение: Управление профессионального образования","Образовательное учреждение среднего профессионального образования","Колледж","(499) 488-33-00","k10.mskcollege.ru/","10@prof.educom.ru","37,536118","55,810583","87028637"
"99","Государственное бюджетное образовательное учреждение среднего профессионального образования города Москвы Строительный колледж № 12","129337 г. Москва. Хибинский проезд, д. 10","Северо-Восточный административный округ","Ярославский район","Государственное","Городское подчинение: Управление профессионального образования","Образовательное учреждение среднего профессионального образования","Колледж","(499) 183-45-56; (499) 183-33-47; (499) 183-89-04; (499) 183-41-10; (499) 188-44-81",,"12@prof.educom.ru","37,578358","55,893532","87028638"
"100","Государственное бюджетное образовательное учреждение среднего профессионального образования города Москвы Строительный колледж № 12","129337 г. Москва. Хибинский проезд, д. 10","Северо-Восточный административный округ","Ярославский район","Государственное","Городское подчинение: Управление профессионального образования","Образовательное учреждение среднего профессионального образования","Колледж","(499) 183-45-56; (499) 183-33-47; (499) 183-89-04; (499) 183-41-10; (499) 188-44-81",,"12@prof.educom.ru","37,580933","55,816976","87028639"
"101","Государственное бюджетное образовательное учреждение среднего профессионального образования города Москвы Строительный колледж № 12","129337 г. Москва. Хибинский проезд, д. 10","Северо-Восточный административный округ","Ярославский район","Государственное","Городское подчинение: Управление профессионального образования","Образовательное учреждение среднего профессионального образования","Колледж","(499) 183-45-56; (499) 183-33-47; (499) 183-89-04; (499) 183-41-10; (499) 188-44-81",,"12@prof.educom.ru","37,70414","55,879152","87028640"
"102","Государственное бюджетное образовательное учреждение среднего профессионального образования города Москвы Строительный колледж № 12","129337 г. Москва. Хибинский проезд, д. 10","Северо-Восточный административный округ","Ярославский район","Государственное","Городское подчинение: Управление профессионального образования","Образовательное учреждение среднего профессионального образования","Колледж","(499) 183-45-56; (499) 183-33-47; (499) 183-89-04; (499) 183-41-10; (499) 188-44-81",,"12@prof.educom.ru","37,68177","55,857424","87028641"
"103","Государственное бюджетное образовательное учреждение среднего профессионального образования города Москвы Строительный колледж № 12","129337 г. Москва. Хибинский проезд, д. 10","Северо-Восточный административный округ","Ярославский район","Государственное","Городское подчинение: Управление профессионального образования","Образовательное учреждение среднего профессионального образования","Колледж","(499) 183-45-56; (499) 183-33-47; (499) 183-89-04; (499) 183-41-10; (499) 188-44-81",,"12@prof.educom.ru","37,680561","55,856452","87028642"
"104","Государственное бюджетное образовательное учреждение среднего профессионального образования города Москвы Строительный колледж № 12","129337 г. Москва. Хибинский проезд, д. 10","Северо-Восточный административный округ","Ярославский район","Государственное","Городское подчинение: Управление профессионального образования","Образовательное учреждение среднего профессионального образования","Колледж","(499) 183-45-56; (499) 183-33-47; (499) 183-89-04; (499) 183-41-10; (499) 188-44-81",,"12@prof.educom.ru","37,663323","55,820405","87028643"
"105","Государственное бюджетное образовательное учреждение среднего профессионального образования города Москвы Технологический Колледж №14","127282, г. Москва, ул. Тихомирова, д. 10, к. 1","Северо-Восточный административный округ","район Ростокино","Государственное","Городское подчинение: Управление профессионального образования","Образовательное учреждение среднего профессионального образования","Колледж","689-30-26",,"14@prof.educom.ru","37,651689","55,884891","87028644"
"106","Государственное бюджетное образовательное учреждение среднего профессионального образования города Москвы Технологический Колледж №14","127282, г. Москва, ул. Тихомирова, д. 10, к. 1","Северо-Восточный административный округ","район Ростокино","Государственное","Городское подчинение: Управление профессионального образования","Образовательное учреждение среднего профессионального образования","Колледж","689-30-26",,"14@prof.educom.ru","37,627101","55,804363","87028645"
"107","Государственное бюджетное образовательное учреждение среднего профессионального образования города Москвы Технологический Колледж №14","127282, г. Москва, ул. Тихомирова, д. 10, к. 1","Северо-Восточный административный округ","район Ростокино","Государственное","Городское подчинение: Управление профессионального образования","Образовательное учреждение среднего профессионального образования","Колледж","689-30-26",,"14@prof.educom.ru","37,649938","55,843514","87028646"
"108","Государственное бюджетное образовательное учреждение среднего профессионального образования города Москвы Строительный колледж № 41","121351 г. Москва ул. Бобруйская д. 7","Западный административный округ","район Кунцево","Государственное","Городское подчинение: Управление профессионального образования","Образовательное учреждение среднего профессионального образования","Колледж","417-07-24","k41.mskcollege.ru/","41@prof.educom.ru","37,40808","55,639907","87028647"
"109","Государственное бюджетное образовательное учреждение среднего профессионального образования города Москвы Строительный колледж № 41","121351 г. Москва ул. Бобруйская д. 7","Западный административный округ","район Кунцево","Государственное","Городское подчинение: Управление профессионального образования","Образовательное учреждение среднего профессионального образования","Колледж","417-07-24","k41.mskcollege.ru/","41@prof.educom.ru","37,444453","55,686968","87028648"
"110","Государственное бюджетное образовательное учреждение среднего профессионального образования города Москвы Строительный колледж № 41","121351 г. Москва ул. Бобруйская д. 7","Западный административный округ","район Кунцево","Государственное","Городское подчинение: Управление профессионального образования","Образовательное учреждение среднего профессионального образования","Колледж","417-07-24","k41.mskcollege.ru/","41@prof.educom.ru","37,399498","55,736081","87028649"
"111","Государственное бюджетное образовательное учреждение среднего профессионального образования города Москвы Железнодорожный колледж № 52","129090 г. Москва, ул. Каланчевская, д. 26, стр. 1","Центральный административный округ","Красносельский район","Государственное","Городское подчинение: Управление профессионального образования","Образовательное учреждение среднего профессионального образования","Колледж","680-34-21","k52.mskcollege.ru/","52@prof.educom.ru","37,647388","55,779178","87028650"
"112","Государственное бюджетное образовательное учреждение среднего профессионального образования города Москвы Железнодорожный колледж № 52","129090 г. Москва, ул. Каланчевская, д. 26, стр. 1","Центральный административный округ","Красносельский район","Государственное","Городское подчинение: Управление профессионального образования","Образовательное учреждение среднего профессионального образования","Колледж","680-34-21","k52.mskcollege.ru/","52@prof.educom.ru","37,647591","55,778957","87028651"
"113","Государственное бюджетное образовательное учреждение среднего профессионального образования города Москвы Железнодорожный колледж № 52","129090 г. Москва, ул. Каланчевская, д. 26, стр. 1","Центральный административный округ","Красносельский район","Государственное","Городское подчинение: Управление профессионального образования","Образовательное учреждение среднего профессионального образования","Колледж","680-34-21","k52.mskcollege.ru/","52@prof.educom.ru","37,72107","55,810086","87028652"
"114","Государственное бюджетное образовательное учреждение среднего профессионального образования города Москвы Железнодорожный колледж № 52","129090 г. Москва, ул. Каланчевская, д. 26, стр. 1","Центральный административный округ","Красносельский район","Государственное","Городское подчинение: Управление профессионального образования","Образовательное учреждение среднего профессионального образования","Колледж","680-34-21","k52.mskcollege.ru/","52@prof.educom.ru","37,64797","55,778795","87028653"
"115","Государственное бюджетное образовательное учреждение среднего профессионального образования города Москвы Железнодорожный колледж № 52","129090 г. Москва, ул. Каланчевская, д. 26, стр. 1","Центральный административный округ","Красносельский район","Государственное","Городское подчинение: Управление профессионального образования","Образовательное учреждение среднего профессионального образования","Колледж","680-34-21","k52.mskcollege.ru/","52@prof.educom.ru","37,828947","55,758032","87028654"
"116","Государственное бюджетное образовательное учреждение среднего профессионального образования города Москвы Колледж сервиса и туризма № 29","109052, г. Москва, ул. Нижегородская, д. 98","Юго-Восточный административный округ","Нижегородский район","Государственное","Городское подчинение: Управление профессионального образования","Образовательное учреждение среднего профессионального образования","Колледж","(495) 678-30-64; (495) 911-46-41; (495) 670-01-51; (495) 670-65-78; (495) 678-43-67; (495) 678-61-54; (495) 678-69-14; (495) 678-45-82; (495) 670-65-79; (495) 678-43-19; (495) 670-74-01; (495) 678-69-28; (495) 911-46-36","k29.mskcollege.ru/","29@prof.educom.ru","37,56989","55,771658","87028708"
"117","Государственное бюджетное образовательное учреждение среднего профессионального образования города Москвы Колледж сервиса и туризма № 29","109052, г. Москва, ул. Нижегородская, д. 98","Юго-Восточный административный округ","Нижегородский район","Государственное","Городское подчинение: Управление профессионального образования","Образовательное учреждение среднего профессионального образования","Колледж","(495) 678-30-64; (495) 911-46-41; (495) 670-01-51; (495) 670-65-78; (495) 678-43-67; (495) 678-61-54; (495) 678-69-14; (495) 678-45-82; (495) 670-65-79; (495) 678-43-19; (495) 670-74-01; (495) 678-69-28; (495) 911-46-36","k29.mskcollege.ru/","29@prof.educom.ru","37,793285","55,706104","87028709"
"118","Государственное бюджетное образовательное учреждение среднего профессионального образования города Москвы Колледж сервиса и туризма № 29","109052, г. Москва, ул. Нижегородская, д. 98","Юго-Восточный административный округ","Нижегородский район","Государственное","Городское подчинение: Управление профессионального образования","Образовательное учреждение среднего профессионального образования","Колледж","(495) 678-30-64; (495) 911-46-41; (495) 670-01-51; (495) 670-65-78; (495) 678-43-67; (495) 678-61-54; (495) 678-69-14; (495) 678-45-82; (495) 670-65-79; (495) 678-43-19; (495) 670-74-01; (495) 678-69-28; (495) 911-46-36","k29.mskcollege.ru/","29@prof.educom.ru","37,754923","55,682088","87028710"
"119","Государственное бюджетное образовательное учреждение среднего профессионального образования города Москвы Колледж сервиса и туризма № 29","109052, г. Москва, ул. Нижегородская, д. 98","Юго-Восточный административный округ","Нижегородский район","Государственное","Городское подчинение: Управление профессионального образования","Образовательное учреждение среднего профессионального образования","Колледж","(495) 678-30-64; (495) 911-46-41; (495) 670-01-51; (495) 670-65-78; (495) 678-43-67; (495) 678-61-54; (495) 678-69-14; (495) 678-45-82; (495) 670-65-79; (495) 678-43-19; (495) 670-74-01; (495) 678-69-28; (495) 911-46-36","k29.mskcollege.ru/","29@prof.educom.ru","37,680091","55,734616","87028711"
"120","Государственное бюджетное образовательное учреждение среднего профессионального образования города Москвы Колледж сервиса и туризма № 29","109052, г. Москва, ул. Нижегородская, д. 98","Юго-Восточный административный округ","Нижегородский район","Государственное","Городское подчинение: Управление профессионального образования","Образовательное учреждение среднего профессионального образования","Колледж","(495) 678-30-64; (495) 911-46-41; (495) 670-01-51; (495) 670-65-78; (495) 678-43-67; (495) 678-61-54; (495) 678-69-14; (495) 678-45-82; (495) 670-65-79; (495) 678-43-19; (495) 670-74-01; (495) 678-69-28; (495) 911-46-36","k29.mskcollege.ru/","29@prof.educom.ru","37,753306","55,704981","87028712"
"121","Государственное бюджетное образовательное учреждение среднего профессионального образования города Москвы Колледж сервиса и туризма № 29","109052, г. Москва, ул. Нижегородская, д. 98","Юго-Восточный административный округ","Нижегородский район","Государственное","Городское подчинение: Управление профессионального образования","Образовательное учреждение среднего профессионального образования","Колледж","(495) 678-30-64; (495) 911-46-41; (495) 670-01-51; (495) 670-65-78; (495) 678-43-67; (495) 678-61-54; (495) 678-69-14; (495) 678-45-82; (495) 670-65-79; (495) 678-43-19; (495) 670-74-01; (495) 678-69-28; (495) 911-46-36","k29.mskcollege.ru/","29@prof.educom.ru","37,723562","55,729761","87028713"
"122","Государственное бюджетное образовательное учреждение среднего профессионального образования города Москвы Колледж сервиса и туризма № 29","109052, г. Москва, ул. Нижегородская, д. 98","Юго-Восточный административный округ","Нижегородский район","Государственное","Городское подчинение: Управление профессионального образования","Образовательное учреждение среднего профессионального образования","Колледж","(495) 678-30-64; (495) 911-46-41; (495) 670-01-51; (495) 670-65-78; (495) 678-43-67; (495) 678-61-54; (495) 678-69-14; (495) 678-45-82; (495) 670-65-79; (495) 678-43-19; (495) 670-74-01; (495) 678-69-28; (495) 911-46-36","k29.mskcollege.ru/","29@prof.educom.ru","37,710009","55,646792","87028714"
"123","Государственное бюджетное образовательное учреждение среднего профессионального образования города Москвы Строительный колледж № 46","123182, г. Москва, ул. Академика Бочвара, д. 2, корп. 2","Северо-Западный административный округ","район Щукино","Государственное","Городское подчинение: Управление профессионального образования","Образовательное учреждение среднего профессионального образования","Колледж","947-37-50","k46.mskcollege.ru/","46@prof.educom.ru","37,46121","55,807834","87028715"
"124","Государственное бюджетное образовательное учреждение среднего профессионального образования города Москвы Строительный колледж № 46","123182, г. Москва, ул. Академика Бочвара, д. 2, корп. 2","Северо-Западный административный округ","район Щукино","Государственное","Городское подчинение: Управление профессионального образования","Образовательное учреждение среднего профессионального образования","Колледж","947-37-50","k46.mskcollege.ru/","46@prof.educom.ru","37,460782","55,807522","87028716"
"125","Государственное бюджетное образовательное учреждение среднего профессионального образования города Москвы Строительный колледж № 46","123182, г. Москва, ул. Академика Бочвара, д. 2, корп. 2","Северо-Западный административный округ","район Щукино","Государственное","Городское подчинение: Управление профессионального образования","Образовательное учреждение среднего профессионального образования","Колледж","947-37-50","k46.mskcollege.ru/","46@prof.educom.ru","37,459137","55,789712","87028717"
"126","Государственное бюджетное образовательное учреждение среднего профессионального образования города Москвы Строительный колледж № 46","123182, г. Москва, ул. Академика Бочвара, д. 2, корп. 2","Северо-Западный административный округ","район Щукино","Государственное","Городское подчинение: Управление профессионального образования","Образовательное учреждение среднего профессионального образования","Колледж","947-37-50","k46.mskcollege.ru/","46@prof.educom.ru","37,470934","55,804529","87028718"
"127","Государственное бюджетное образовательное учреждение среднего профессионального образования города Москвы Колледж сферы услуг № 3","109029 г. Москва, ул. Б.Калитниковская, д. 36, стр. 1","Центральный административный округ","Таганский район","Государственное","Городское подчинение: Управление профессионального образования","Образовательное учреждение среднего профессионального образования","Колледж","670-50-81",,"03@prof.educom.ru","37,67666","55,727458","87028780"
"128","Государственное бюджетное образовательное учреждение среднего профессионального образования города Москвы Колледж сферы услуг № 3","109029 г. Москва, ул. Б.Калитниковская, д. 36, стр. 1","Центральный административный округ","Таганский район","Государственное","Городское подчинение: Управление профессионального образования","Образовательное учреждение среднего профессионального образования","Колледж","670-50-81",,"03@prof.educom.ru","37,685202","55,736662","87028781"
"129","Государственное бюджетное образовательное учреждение среднего профессионального образования города Москвы Колледж архитектуры и строительства № 7","125315, г. Москва, ул. Усиевича, д. 31","Северный административный округ","район Аэропорт","Государственное","Городское подчинение: Управление профессионального образования","Образовательное учреждение среднего профессионального образования","Колледж","611-54-38","k07.mskcollege.ru/","07@prof.educom.ru","37,518025","55,80729","87028782"
"130","Государственное бюджетное образовательное учреждение среднего профессионального образования города Москвы Колледж архитектуры и строительства № 7","125315, г. Москва, ул. Усиевича, д. 31","Северный административный округ","район Аэропорт","Государственное","Городское подчинение: Управление профессионального образования","Образовательное учреждение среднего профессионального образования","Колледж","611-54-38","k07.mskcollege.ru/","07@prof.educom.ru","37,497914","55,869638","87028783"
"131","Государственное бюджетное образовательное учреждение среднего профессионального образования города Москвы Колледж архитектуры и строительства № 7","125315, г. Москва, ул. Усиевича, д. 31","Северный административный округ","район Аэропорт","Государственное","Городское подчинение: Управление профессионального образования","Образовательное учреждение среднего профессионального образования","Колледж","611-54-38","k07.mskcollege.ru/","07@prof.educom.ru","37,519149","55,886056","87028784"
"132","Государственное бюджетное образовательное учреждение среднего профессионального образования города Москвы Колледж архитектуры и строительства № 7","125315, г. Москва, ул. Усиевича, д. 31","Северный административный округ","район Аэропорт","Государственное","Городское подчинение: Управление профессионального образования","Образовательное учреждение среднего профессионального образования","Колледж","611-54-38","k07.mskcollege.ru/","07@prof.educom.ru","37,518016","55,886023","87028785"
"133","Государственное бюджетное образовательное учреждение среднего профессионального образования города Москвы Колледж архитектуры и строительства № 7","125315, г. Москва, ул. Усиевича, д. 31","Северный административный округ","район Аэропорт","Государственное","Городское подчинение: Управление профессионального образования","Образовательное учреждение среднего профессионального образования","Колледж","611-54-38","k07.mskcollege.ru/","07@prof.educom.ru","37,56028","55,806388","87028786"
"134","Государственное бюджетное образовательное учреждение среднего профессионального образования города Москвы Колледж архитектуры и строительства № 7","125315, г. Москва, ул. Усиевича, д. 31","Северный административный округ","район Аэропорт","Государственное","Городское подчинение: Управление профессионального образования","Образовательное учреждение среднего профессионального образования","Колледж","611-54-38","k07.mskcollege.ru/","07@prof.educom.ru","37,519149","55,885576","87028787"
"135","Государственное бюджетное образовательное учреждение среднего профессионального образования города Москвы Колледж архитектуры и строительства № 7","125315, г. Москва, ул. Усиевича, д. 31","Северный административный округ","район Аэропорт","Государственное","Городское подчинение: Управление профессионального образования","Образовательное учреждение среднего профессионального образования","Колледж","611-54-38","k07.mskcollege.ru/","07@prof.educom.ru","37,519302","55,885273","87028788"
"136","Государственное бюджетное образовательное учреждение среднего профессионального образования города Москвы Колледж архитектуры и строительства № 7","125315, г. Москва, ул. Усиевича, д. 31","Северный административный округ","район Аэропорт","Государственное","Городское подчинение: Управление профессионального образования","Образовательное учреждение среднего профессионального образования","Колледж","611-54-38","k07.mskcollege.ru/","07@prof.educom.ru","37,565606","55,796425","87028789"
"137","Государственное бюджетное образовательное учреждение среднего профессионального образования города Москвы Колледж автомобильного транспорта № 9","127591 г. Москва, Керамический пр-д, д.59","Северный административный округ","Алтуфьевский район","Государственное","Городское подчинение: Управление профессионального образования","Образовательное учреждение среднего профессионального образования","Колледж","(499) 901-48-00","k09.mskcollege.ru","09@prof.educom.ru","37,572322","55,882933","87028790"
"138","Государственное бюджетное образовательное учреждение среднего профессионального образования города Москвы Колледж автомобильного транспорта № 9","127591 г. Москва, Керамический пр-д, д.59","Северный административный округ","Алтуфьевский район","Государственное","Городское подчинение: Управление профессионального образования","Образовательное учреждение среднего профессионального образования","Колледж","(499) 901-48-00","k09.mskcollege.ru","09@prof.educom.ru","37,564941","55,88483","87028791"
"139","Государственное бюджетное образовательное учреждение среднего профессионального образования города Москвы Колледж автомобильного транспорта № 9","127591 г. Москва, Керамический пр-д, д.59","Северный административный округ","Алтуфьевский район","Государственное","Городское подчинение: Управление профессионального образования","Образовательное учреждение среднего профессионального образования","Колледж","(499) 901-48-00","k09.mskcollege.ru","09@prof.educom.ru","37,533739","55,811798","87028792"
"140","Государственное бюджетное образовательное учреждение среднего профессионального образования города Москвы Колледж автомобильного транспорта № 9","127591 г. Москва, Керамический пр-д, д.59","Северный административный округ","Алтуфьевский район","Государственное","Городское подчинение: Управление профессионального образования","Образовательное учреждение среднего профессионального образования","Колледж","(499) 901-48-00","k09.mskcollege.ru","09@prof.educom.ru","37,532829","55,811606","87028793"
"141","Государственное бюджетное образовательное учреждение среднего профессионального образования города Москвы Колледж автомобильного транспорта № 9","127591 г. Москва, Керамический пр-д, д.59","Северный административный округ","Алтуфьевский район","Государственное","Городское подчинение: Управление профессионального образования","Образовательное учреждение среднего профессионального образования","Колледж","(499) 901-48-00","k09.mskcollege.ru","09@prof.educom.ru","37,533986","55,812234","87028794"
"142","Государственное бюджетное образовательное учреждение среднего профессионального образования города Москвы Колледж автомобильного транспорта № 9","127591 г. Москва, Керамический пр-д, д.59","Северный административный округ","Алтуфьевский район","Государственное","Городское подчинение: Управление профессионального образования","Образовательное учреждение среднего профессионального образования","Колледж","(499) 901-48-00","k09.mskcollege.ru","09@prof.educom.ru","37,532451","55,811956","87028795"
"143","Государственное бюджетное образовательное учреждение среднего профессионального образования города Москвы Колледж архитектуры и менеджмента в строительстве № 17","105203, город  Москва, 12-я Парковая улица,  дом 13/96  стр. 1-2","Восточный административный округ","район Восточное Измайлово","Государственное","Городское подчинение: Управление профессионального образования","Образовательное учреждение среднего профессионального образования","Колледж","963-27-57",,"17@prof.educom.ru","37,809872","55,792698","87028796"
"144","Государственное бюджетное образовательное учреждение среднего профессионального образования города Москвы Колледж архитектуры и менеджмента в строительстве № 17","105203, город  Москва, 12-я Парковая улица,  дом 13/96  стр. 1-2","Восточный административный округ","район Восточное Измайлово","Государственное","Городское подчинение: Управление профессионального образования","Образовательное учреждение среднего профессионального образования","Колледж","963-27-57",,"17@prof.educom.ru","37,811706","55,79025","87028797"
"145","Государственное бюджетное образовательное учреждение среднего профессионального образования города Москвы Колледж архитектуры и менеджмента в строительстве № 17","105203, город  Москва, 12-я Парковая улица,  дом 13/96  стр. 1-2","Восточный административный округ","район Восточное Измайлово","Государственное","Городское подчинение: Управление профессионального образования","Образовательное учреждение среднего профессионального образования","Колледж","963-27-57",,"17@prof.educom.ru","37,828951","55,749048","87028798"
"146","Государственное бюджетное образовательное учреждение среднего профессионального образования города Москвы Колледж архитектуры и менеджмента в строительстве № 17","105203, город  Москва, 12-я Парковая улица,  дом 13/96  стр. 1-2","Восточный административный округ","район Восточное Измайлово","Государственное","Городское подчинение: Управление профессионального образования","Образовательное учреждение среднего профессионального образования","Колледж","963-27-57",,"17@prof.educom.ru","37,760115","55,757174","87028799"
"147","Государственное бюджетное образовательное учреждение среднего профессионального образования города Москвы Колледж архитектуры и менеджмента в строительстве № 17","105203, город  Москва, 12-я Парковая улица,  дом 13/96  стр. 1-2","Восточный административный округ","район Восточное Измайлово","Государственное","Городское подчинение: Управление профессионального образования","Образовательное учреждение среднего профессионального образования","Колледж","963-27-57",,"17@prof.educom.ru","37,75989","55,756665","87028800"
"148","Государственное бюджетное образовательное учреждение среднего профессионального образования города Москвы Строительный колледж № 30","115419 г. Москва, ул. Академика Петровского,  д.10","Южный административный округ","Донской район","Государственное","Городское подчинение: Управление профессионального образования","Образовательное учреждение среднего профессионального образования","Колледж","(499) 236-73-46","k30.mskcollege.ru","colledge@ck-30.ru","37,607112","55,719178","87028801"
"149","Государственное бюджетное образовательное учреждение среднего профессионального образования города Москвы Строительный колледж № 30","115419 г. Москва, ул. Академика Петровского,  д.10","Южный административный округ","Донской район","Государственное","Городское подчинение: Управление профессионального образования","Образовательное учреждение среднего профессионального образования","Колледж","(499) 236-73-46","k30.mskcollege.ru","colledge@ck-30.ru","37,613819","55,720092","87028802"
"150","Государственное бюджетное образовательное учреждение среднего профессионального образования города Москвы Строительный колледж № 30","115419 г. Москва, ул. Академика Петровского,  д.10","Южный административный округ","Донской район","Государственное","Городское подчинение: Управление профессионального образования","Образовательное учреждение среднего профессионального образования","Колледж","(499) 236-73-46","k30.mskcollege.ru","colledge@ck-30.ru","37,736201","55,612458","87028803"
"151","Государственное бюджетное образовательное учреждение среднего профессионального образования города Москвы Колледж декоративно-прикладного искусства № 36 имени Карла Фаберже","115407 г. Москва, ул. Якорная д. 6, стр. 1","Южный административный округ","район Нагатинский Затон","Государственное","Городское подчинение: Управление профессионального образования","Образовательное учреждение среднего профессионального образования","Колледж","391-16-69","k36.mskcollege.ru/","36@prof.educom.ru","37,682155","55,685887","87028804"
"152","Государственное бюджетное образовательное учреждение среднего профессионального образования города Москвы "Колледж градостроительства и сервиса № 38"","117321, г. Москва, ул. Профсоюзная, д. 154, корпус 7","Юго-Западный административный округ","район Тёплый Стан","Государственное","Городское подчинение: Управление профессионального образования","Образовательное учреждение среднего профессионального образования","Колледж","(495) 713-17-52",,"38@prof.educom.ru","37,499007","55,623955","87028805"
"153","Государственное бюджетное образовательное учреждение среднего профессионального образования города Москвы "Колледж градостроительства и сервиса № 38"","117321, г. Москва, ул. Профсоюзная, д. 154, корпус 7","Юго-Западный административный округ","район Тёплый Стан","Государственное","Городское подчинение: Управление профессионального образования","Образовательное учреждение среднего профессионального образования","Колледж","(495) 713-17-52",,"38@prof.educom.ru","37,572753","55,679967","87028806"
"154","Государственное бюджетное образовательное учреждение среднего профессионального образования города Москвы "Колледж градостроительства и сервиса № 38"","117321, г. Москва, ул. Профсоюзная, д. 154, корпус 7","Юго-Западный административный округ","район Тёплый Стан","Государственное","Городское подчинение: Управление профессионального образования","Образовательное учреждение среднего профессионального образования","Колледж","(495) 713-17-52",,"38@prof.educom.ru","37,601145","55,652315","87028807"
"155","Государственное бюджетное образовательное учреждение среднего профессионального образования города Москвы "Колледж градостроительства и сервиса № 38"","117321, г. Москва, ул. Профсоюзная, д. 154, корпус 7","Юго-Западный административный округ","район Тёплый Стан","Государственное","Городское подчинение: Управление профессионального образования","Образовательное учреждение среднего профессионального образования","Колледж","(495) 713-17-52",,"38@prof.educom.ru","37,601861","55,652482","87028808"
"156","Государственное бюджетное образовательное учреждение среднего профессионального образования города Москвы "Колледж градостроительства и сервиса № 38"","117321, г. Москва, ул. Профсоюзная, д. 154, корпус 7","Юго-Западный административный округ","район Тёплый Стан","Государственное","Городское подчинение: Управление профессионального образования","Образовательное учреждение среднего профессионального образования","Колледж","(495) 713-17-52",,"38@prof.educom.ru","37,574343","55,575474","87028809"
"157","Государственное бюджетное образовательное учреждение среднего профессионального образования города Москвы "Колледж градостроительства и сервиса № 38"","117321, г. Москва, ул. Профсоюзная, д. 154, корпус 7","Юго-Западный административный округ","район Тёплый Стан","Государственное","Городское подчинение: Управление профессионального образования","Образовательное учреждение среднего профессионального образования","Колледж","(495) 713-17-52",,"38@prof.educom.ru","37,582513","55,560383","87028810"
"158","Государственное бюджетное образовательное учреждение среднего профессионального образования города Москвы Политехнический колледж № 39","117036, город Москва, улица  Дмитрия Ульянова, дом 26","Юго-Западный административный округ","Академический район","Государственное","Городское подчинение: Управление профессионального образования","Образовательное учреждение среднего профессионального образования","Колледж","(499) 127-69-95; (499) 127-10-03; (499) 176-10-70; (499) 127-12-70; (499) 127-33-95; (499) 123-63-91; (499) 127-11-12",,"39@prof.educom.ru","37,576868","55,685215","87028811"
"159","Государственное бюджетное образовательное учреждение среднего профессионального образования города Москвы Политехнический колледж № 39","117036, город Москва, улица  Дмитрия Ульянова, дом 26","Юго-Западный административный округ","Академический район","Государственное","Городское подчинение: Управление профессионального образования","Образовательное учреждение среднего профессионального образования","Колледж","(499) 127-69-95; (499) 127-10-03; (499) 176-10-70; (499) 127-12-70; (499) 127-33-95; (499) 123-63-91; (499) 127-11-12",,"39@prof.educom.ru","37,517757","55,680941","87028812"
"160","Государственное бюджетное образовательное учреждение среднего профессионального образования города Москвы Политехнический колледж № 39","117036, город Москва, улица  Дмитрия Ульянова, дом 26","Юго-Западный административный округ","Академический район","Государственное","Городское подчинение: Управление профессионального образования","Образовательное учреждение среднего профессионального образования","Колледж","(499) 127-69-95; (499) 127-10-03; (499) 176-10-70; (499) 127-12-70; (499) 127-33-95; (499) 123-63-91; (499) 127-11-12",,"39@prof.educom.ru","37,602128","55,684728","87028813"
"161","Государственное бюджетное образовательное учреждение среднего профессионального образования города Москвы Политехнический колледж № 39","117036, город Москва, улица  Дмитрия Ульянова, дом 26","Юго-Западный административный округ","Академический район","Государственное","Городское подчинение: Управление профессионального образования","Образовательное учреждение среднего профессионального образования","Колледж","(499) 127-69-95; (499) 127-10-03; (499) 176-10-70; (499) 127-12-70; (499) 127-33-95; (499) 123-63-91; (499) 127-11-12",,"39@prof.educom.ru","37,587145","55,683534","87028814"
"162","Государственное бюджетное образовательное учреждение среднего профессионального образования города Москвы Политехнический колледж № 39","117036, город Москва, улица  Дмитрия Ульянова, дом 26","Юго-Западный административный округ","Академический район","Государственное","Городское подчинение: Управление профессионального образования","Образовательное учреждение среднего профессионального образования","Колледж","(499) 127-69-95; (499) 127-10-03; (499) 176-10-70; (499) 127-12-70; (499) 127-33-95; (499) 123-63-91; (499) 127-11-12",,"39@prof.educom.ru","37,592863","55,683766","87028815"
"163","Государственное бюджетное образовательное учреждение среднего профессионального образования города Москвы Политехнический колледж № 39","117036, город Москва, улица  Дмитрия Ульянова, дом 26","Юго-Западный административный округ","Академический район","Государственное","Городское подчинение: Управление профессионального образования","Образовательное учреждение среднего профессионального образования","Колледж","(499) 127-69-95; (499) 127-10-03; (499) 176-10-70; (499) 127-12-70; (499) 127-33-95; (499) 123-63-91; (499) 127-11-12",,"39@prof.educom.ru","37,593738","55,683399","87028816"
"164","Гсударственное бюджетное образовательное учреждение среднего профессионального образования города Москвы "Московский колледж профессиональных технологий"","109382, г. Москва, ул. Люблинская д. 56/2","Юго-Восточный административный округ","район Люблино","Государственное","Городское подчинение: Управление профессионального образования","Образовательное учреждение среднего профессионального образования","Колледж","(495)351-39-12",,"mkpt-spo@mail.ru","37,738222","55,67555","87028818"
"165","Гсударственное бюджетное образовательное учреждение среднего профессионального образования города Москвы "Московский колледж профессиональных технологий"","109382, г. Москва, ул. Люблинская д. 56/2","Юго-Восточный административный округ","район Люблино","Государственное","Городское подчинение: Управление профессионального образования","Образовательное учреждение среднего профессионального образования","Колледж","(495)351-39-12",,"mkpt-spo@mail.ru","37,737671","55,67603","87028819"
"166","Гсударственное бюджетное образовательное учреждение среднего профессионального образования города Москвы "Московский колледж профессиональных технологий"","109382, г. Москва, ул. Люблинская д. 56/2","Юго-Восточный административный округ","район Люблино","Государственное","Городское подчинение: Управление профессионального образования","Образовательное учреждение среднего профессионального образования","Колледж","(495)351-39-12",,"mkpt-spo@mail.ru","37,736974","55,676175","87028820"
"167","Гсударственное бюджетное образовательное учреждение среднего профессионального образования города Москвы "Московский колледж профессиональных технологий"","109382, г. Москва, ул. Люблинская д. 56/2","Юго-Восточный административный округ","район Люблино","Государственное","Городское подчинение: Управление профессионального образования","Образовательное учреждение среднего профессионального образования","Колледж","(495)351-39-12",,"mkpt-spo@mail.ru","37,736389","55,676338","87028821"
"168","Гсударственное бюджетное образовательное учреждение среднего профессионального образования города Москвы "Московский колледж профессиональных технологий"","109382, г. Москва, ул. Люблинская д. 56/2","Юго-Восточный административный округ","район Люблино","Государственное","Городское подчинение: Управление профессионального образования","Образовательное учреждение среднего профессионального образования","Колледж","(495)351-39-12",,"mkpt-spo@mail.ru","37,737051","55,676555","87028822"
"169","Государственное автономное образовательное учреждение среднего профессионального образования города Москвы Технологический колледж № 28","109383, г. Москва, ул. Полбина, д. 72","Юго-Восточный административный округ","район Печатники","Государственное","Городское подчинение: Управление профессионального образования","Образовательное учреждение среднего профессионального образования","Колледж","(495) 673-54-22","k28.mskcollege.ru","28@prof.educom.ru","37,720614","55,666968","87028823"
"170","Государственное автономное образовательное учреждение среднего профессионального образования города Москвы Технологический колледж № 28","109383, г. Москва, ул. Полбина, д. 72","Юго-Восточный административный округ","район Печатники","Государственное","Городское подчинение: Управление профессионального образования","Образовательное учреждение среднего профессионального образования","Колледж","(495) 673-54-22","k28.mskcollege.ru","28@prof.educom.ru","37,721168","55,668158","87028824"
"171","Государственное автономное образовательное учреждение среднего профессионального образования города Москвы Технологический колледж № 28","109383, г. Москва, ул. Полбина, д. 72","Юго-Восточный административный округ","район Печатники","Государственное","Городское подчинение: Управление профессионального образования","Образовательное учреждение среднего профессионального образования","Колледж","(495) 673-54-22","k28.mskcollege.ru","28@prof.educom.ru","37,752074","55,667074","87028825"
"172","Государственное автономное образовательное учреждение среднего профессионального образования города Москвы Технологический колледж № 28","109383, г. Москва, ул. Полбина, д. 72","Юго-Восточный административный округ","район Печатники","Государственное","Городское подчинение: Управление профессионального образования","Образовательное учреждение среднего профессионального образования","Колледж","(495) 673-54-22","k28.mskcollege.ru","28@prof.educom.ru","37,752982","55,666928","87028826"
"173","Государственное автономное образовательное учреждение среднего профессионального образования города Москвы Технологический колледж № 28","109383, г. Москва, ул. Полбина, д. 72","Юго-Восточный административный округ","район Печатники","Государственное","Городское подчинение: Управление профессионального образования","Образовательное учреждение среднего профессионального образования","Колледж","(495) 673-54-22","k28.mskcollege.ru","28@prof.educom.ru","37,715772","55,745058","87028827"
"174","Государственное автономное образовательное учреждение среднего профессионального образования города Москвы Технологический колледж № 28","109383, г. Москва, ул. Полбина, д. 72","Юго-Восточный административный округ","район Печатники","Государственное","Городское подчинение: Управление профессионального образования","Образовательное учреждение среднего профессионального образования","Колледж","(495) 673-54-22","k28.mskcollege.ru","28@prof.educom.ru","37,720869","55,667401","87028828"
"175","Государственное бюджетное образовательное учреждение среднего профессионального образования города Москвы Колледж легкой промышленности № 5","127051, г. Москва, 3-ий Колобовский пер., д. 8, стр. 2","Центральный административный округ","Тверской район","Государственное","Городское подчинение: Управление профессионального образования","Образовательное учреждение среднего профессионального образования","Колледж","699-54-93",,"05@prof.educom.ru","37,659247","55,771575","87028981"
"176","Государственное бюджетное образовательное учреждение среднего профессионального образования города Москвы Колледж легкой промышленности № 5","127051, г. Москва, 3-ий Колобовский пер., д. 8, стр. 2","Центральный административный округ","Тверской район","Государственное","Городское подчинение: Управление профессионального образования","Образовательное учреждение среднего профессионального образования","Колледж","699-54-93",,"05@prof.educom.ru","37,688142","55,777989","87028982"
"177","Государственное бюджетное образовательное учреждение среднего профессионального образования города Москвы Колледж предпринимательства № 15","129281 г. Москва, Староватутинский проезд, д. 6","Северо-Восточный административный округ","Бабушкинский район","Государственное","Городское подчинение: Управление профессионального образования","Образовательное учреждение среднего профессионального образования","Колледж","(499) 184-21-27; (499) 184-20-77",,"15@prof.educom.ru","37,671783","55,877426","87028983"
"178","Государственное бюджетное образовательное учреждение среднего профессионального образования города Москвы Политехнический колледж № 19","111555, г. Москва, Напольный пр-д, д. 9","Восточный административный округ","район Ивановское","Государственное","Городское подчинение: Управление профессионального образования","Образовательное учреждение среднего профессионального образования","Колледж","(499) 369-05-11; (499) 369-50-06; (499) 369-53-50","k19.mskcollege.ru/","19@prof.educom.ru","37,731552","55,783377","87028984"
"179","Государственное бюджетное образовательное учреждение среднего профессионального образования города Москвы Политехнический колледж № 19","111555, г. Москва, Напольный пр-д, д. 9","Восточный административный округ","район Ивановское","Государственное","Городское подчинение: Управление профессионального образования","Образовательное учреждение среднего профессионального образования","Колледж","(499) 369-05-11; (499) 369-50-06; (499) 369-53-50","k19.mskcollege.ru/","19@prof.educom.ru","37,733575","55,765728","87028985"
"180","Государственное бюджетное образовательное учреждение среднего профессионального образования города Москвы Политехнический колледж № 19","111555, г. Москва, Напольный пр-д, д. 9","Восточный административный округ","район Ивановское","Государственное","Городское подчинение: Управление профессионального образования","Образовательное учреждение среднего профессионального образования","Колледж","(499) 369-05-11; (499) 369-50-06; (499) 369-53-50","k19.mskcollege.ru/","19@prof.educom.ru","37,830434","55,758643","87028986"
"181","Государственное бюджетное образовательное учреждение среднего профессионального образования города Москвы Технический пожарно-спасательный коллежд № 57","125080 г. Москва, Светлый проезд, д. 2а","Северный административный округ","район Сокол","Государственное","Городское подчинение: Управление профессионального образования","Образовательное учреждение среднего профессионального образования","Колледж","(499) 123-33-42; (499) 123-05-29; (499) 123-12-36; (499) 123-11-34","k57.mskcollege.ru/","57@prof.educom.ru","37,490353","55,812175","87028990"
"182","Государственное бюджетное образовательное учреждение среднего профессионального образования города Москвы Технический пожарно-спасательный коллежд № 57","125080 г. Москва, Светлый проезд, д. 2а","Северный административный округ","район Сокол","Государственное","Городское подчинение: Управление профессионального образования","Образовательное учреждение среднего профессионального образования","Колледж","(499) 123-33-42; (499) 123-05-29; (499) 123-12-36; (499) 123-11-34","k57.mskcollege.ru/","57@prof.educom.ru","37,641226","55,676043","87028991"
"183","Государственное бюджетное образовательное учреждение среднего профессионального образования города Москвы Технический пожарно-спасательный коллежд № 57","125080 г. Москва, Светлый проезд, д. 2а","Северный административный округ","район Сокол","Государственное","Городское подчинение: Управление профессионального образования","Образовательное учреждение среднего профессионального образования","Колледж","(499) 123-33-42; (499) 123-05-29; (499) 123-12-36; (499) 123-11-34","k57.mskcollege.ru/","57@prof.educom.ru","37,608586","55,68017","87028992"
"184","Государственное бюджетное образовательное учреждение среднего профессионального образования города Москвы "Московский колледж градостроительства и предпринимательства"","129336, г. Москва, Анадырский проезд, д. 79, стр.1-2","Северо-Восточный административный округ","Лосиноостровский район","Государственное","Городское подчинение: Управление профессионального образования","Образовательное учреждение среднего профессионального образования","Колледж","(499) 188-62-10",,"89@prof.educom.ru","37,713823","55,884425","87028993"
"185","Государственное бюджетное образовательное учреждение среднего профессионального образования города Москвы "Московский государственный колледж книжного бизнеса и информационных технологий"","125130, г. Москва, ул. З. и А. Космодемьянских, д. 19","Северный административный округ","Войковский район","Государственное","Городское подчинение: Управление профессионального образования","Образовательное учреждение среднего профессионального образования","Колледж","450-03-23",,"68@prof.educom.ru","37,515974","55,822721","87029102"
"186","Государственное бюджетное образовательное учреждение среднего профессионального образования города Москвы Политехнический колледж № 2","119121 г. Москва, ул.Тимура Фрунзе, д. 28","Центральный административный округ","район Хамовники","Государственное","Городское подчинение: Управление профессионального образования","Образовательное учреждение среднего профессионального образования","Колледж","(499) 253-59-31",,"02@prof.educom.ru","37,692228","55,776564","87029103"
"187","Государственное бюджетное образовательное учреждение среднего профессионального образования города Москвы Политехнический колледж № 2","119121 г. Москва, ул.Тимура Фрунзе, д. 28","Центральный административный округ","район Хамовники","Государственное","Городское подчинение: Управление профессионального образования","Образовательное учреждение среднего профессионального образования","Колледж","(499) 253-59-31",,"02@prof.educom.ru","37,566605","55,734391","87029104"
"188","Государственное бюджетное образовательное учреждение среднего профессионального образования города Москвы Политехнический колледж № 2","119121 г. Москва, ул.Тимура Фрунзе, д. 28","Центральный административный округ","район Хамовники","Государственное","Городское подчинение: Управление профессионального образования","Образовательное учреждение среднего профессионального образования","Колледж","(499) 253-59-31",,"02@prof.educom.ru","37,567126","55,734456","87029105"
"189","Государственное бюджетное образовательное учреждение среднего профессионального образования города Москвы Политехнический колледж № 2","119121 г. Москва, ул.Тимура Фрунзе, д. 28","Центральный административный округ","район Хамовники","Государственное","Городское подчинение: Управление профессионального образования","Образовательное учреждение среднего профессионального образования","Колледж","(499) 253-59-31",,"02@prof.educom.ru","37,572198","55,738068","87029106"
"190","Государственное бюджетное образовательное учреждение среднего профессионального образования города Москвы Политехнический колледж № 2","119121 г. Москва, ул.Тимура Фрунзе, д. 28","Центральный административный округ","район Хамовники","Государственное","Городское подчинение: Управление профессионального образования","Образовательное учреждение среднего профессионального образования","Колледж","(499) 253-59-31",,"02@prof.educom.ru","37,58699","55,736314","87029107"
"191","Государственное бюджетное образовательное учреждение среднего профессионального образования города Москвы Колледж сферы услуг № 44","119607, г. Москва, ул. Раменки, д. 4","Западный административный округ","район Раменки","Государственное","Городское подчинение: Управление профессионального образования","Образовательное учреждение среднего профессионального образования","Колледж","(499) 141-00-94",,"44@prof.educom.ru","37,424933","55,687004","87029108"
"192","Государственное бюджетное образовательное учреждение среднего профессионального образования города Москвы Колледж сферы услуг № 44","119607, г. Москва, ул. Раменки, д. 4","Западный административный округ","район Раменки","Государственное","Городское подчинение: Управление профессионального образования","Образовательное учреждение среднего профессионального образования","Колледж","(499) 141-00-94",,"44@prof.educom.ru","37,494152","55,693759","87029109"
"193","Государственное бюджетное образовательное учреждение среднего профессионального образования города Москвы Колледж сферы услуг № 44","119607, г. Москва, ул. Раменки, д. 4","Западный административный округ","район Раменки","Государственное","Городское подчинение: Управление профессионального образования","Образовательное учреждение среднего профессионального образования","Колледж","(499) 141-00-94",,"44@prof.educom.ru","37,39438","55,738765","87029110"
"194","Государственное бюджетное образовательное учреждение среднего профессионального образования города Москвы Колледж сферы услуг № 44","119607, г. Москва, ул. Раменки, д. 4","Западный административный округ","район Раменки","Государственное","Городское подчинение: Управление профессионального образования","Образовательное учреждение среднего профессионального образования","Колледж","(499) 141-00-94",,"44@prof.educom.ru","37,481334","55,732724","87029111"
"195","Государственное бюджетное образовательное учреждение среднего профессионального образования города Москвы Колледж сферы услуг № 44","119607, г. Москва, ул. Раменки, д. 4","Западный административный округ","район Раменки","Государственное","Городское подчинение: Управление профессионального образования","Образовательное учреждение среднего профессионального образования","Колледж","(499) 141-00-94",,"44@prof.educom.ru","37,434525","55,731928","87029112"
"196","Государственное бюджетное образовательное учреждение среднего профессионального образования города Москвы Колледж сферы услуг № 44","119607, г. Москва, ул. Раменки, д. 4","Западный административный округ","район Раменки","Государственное","Городское подчинение: Управление профессионального образования","Образовательное учреждение среднего профессионального образования","Колледж","(499) 141-00-94",,"44@prof.educom.ru","37,410329","55,736589","87029113"
"197","Государственное бюджетное образовательное учреждение среднего профессионального образования города Москвы Колледж сферы услуг № 44","119607, г. Москва, ул. Раменки, д. 4","Западный административный округ","район Раменки","Государственное","Городское подчинение: Управление профессионального образования","Образовательное учреждение среднего профессионального образования","Колледж","(499) 141-00-94",,"44@prof.educom.ru","37,488165","55,737989","87029114"
"198","Государственное бюджетное образовательное учреждение среднего профессионального образования города Москвы Театрально-художественный колледж № 60","125315 г. Москва, пр. Амбулаторный 1-й, д. 8, стр. 2","Северный административный округ","район Аэропорт","Государственное","Городское подчинение: Управление профессионального образования","Образовательное учреждение среднего профессионального образования","Колледж","(499) 152-37-60","k60.mskcollege.ru/","60@prof.educom.ru","37,580593","55,798628","87029115"
"199","Государственное бюджетное образовательное учреждение среднего профессионального образования города Москвы Театрально-художественный колледж № 60","125315 г. Москва, пр. Амбулаторный 1-й, д. 8, стр. 2","Северный административный округ","район Аэропорт","Государственное","Городское подчинение: Управление профессионального образования","Образовательное учреждение среднего профессионального образования","Колледж","(499) 152-37-60","k60.mskcollege.ru/","60@prof.educom.ru","37,580841","55,798822","87029116"
"200","Государственное бюджетное образовательное учреждение среднего профессионального образования города Москвы Театрально-художественный колледж № 60","125315 г. Москва, пр. Амбулаторный 1-й, д. 8, стр. 2","Северный административный округ","район Аэропорт","Государственное","Городское подчинение: Управление профессионального образования","Образовательное учреждение среднего профессионального образования","Колледж","(499) 152-37-60","k60.mskcollege.ru/","60@prof.educom.ru","37,672706","55,763234","87029117"
"201","Государственное бюджетное образовательное учреждение среднего профессионального образования города Москвы Театрально-художественный колледж № 60","125315 г. Москва, пр. Амбулаторный 1-й, д. 8, стр. 2","Северный административный округ","район Аэропорт","Государственное","Городское подчинение: Управление профессионального образования","Образовательное учреждение среднего профессионального образования","Колледж","(499) 152-37-60","k60.mskcollege.ru/","60@prof.educom.ru","37,658592","55,738604","87029118"
"202","Государственное бюджетное образовательное учреждение среднего профессионального образования города Москвы "Московский радиотехнический колледж имени А.А.Расплетина"","123022 г. Москва, ул. Большая Декабрьская, дом 5","Центральный административный округ","Пресненский район","Государственное","Городское подчинение: Управление профессионального образования","Образовательное учреждение среднего профессионального образования","Колледж","(499)252-11-84 ,(499) 252-11-84",,"mrtc@mail.ru","37,558071","55,765492","87029119"
"203","Государственное бюджетное образовательное учреждение среднего профессионального образования города Москвы "Московский радиотехнический колледж имени А.А.Расплетина"","123022 г. Москва, ул. Большая Декабрьская, дом 5","Центральный административный округ","Пресненский район","Государственное","Городское подчинение: Управление профессионального образования","Образовательное учреждение среднего профессионального образования","Колледж","(499)252-11-84 ,(499) 252-11-84",,"mrtc@mail.ru","37,558052","55,765761","87029120"
"204","Государственное автономное образовательное учреждение среднего профессионального образования города Москвы Колледж предпринимательства №11","125438, г. Москва, ул. Онежская, дом 3","Северный административный округ","Головинский район","Государственное","Городское подчинение: Управление профессионального образования","Образовательное учреждение среднего профессионального образования","Колледж","(499) 150-55-02",,"info@kp11.ru","37,498659","55,848436","87029121"
"205","Государственное автономное образовательное учреждение среднего профессионального образования города Москвы Колледж предпринимательства №11","125438, г. Москва, ул. Онежская, дом 3","Северный административный округ","Головинский район","Государственное","Городское подчинение: Управление профессионального образования","Образовательное учреждение среднего профессионального образования","Колледж","(499) 150-55-02",,"info@kp11.ru","37,496013","55,818247","87029122"
"206","Государственное автономное образовательное учреждение среднего профессионального образования города Москвы Колледж предпринимательства №11","125438, г. Москва, ул. Онежская, дом 3","Северный административный округ","Головинский район","Государственное","Городское подчинение: Управление профессионального образования","Образовательное учреждение среднего профессионального образования","Колледж","(499) 150-55-02",,"info@kp11.ru","37,517581","55,860474","87029123"
"207","Государственное автономное образовательное учреждение среднего профессионального образования города Москвы Колледж предпринимательства №11","125438, г. Москва, ул. Онежская, дом 3","Северный административный округ","Головинский район","Государственное","Городское подчинение: Управление профессионального образования","Образовательное учреждение среднего профессионального образования","Колледж","(499) 150-55-02",,"info@kp11.ru","37,52094","55,845107","87029124"
"208","Государственное автономное образовательное учреждение среднего профессионального образования города Москвы Колледж предпринимательства №11","125438, г. Москва, ул. Онежская, дом 3","Северный административный округ","Головинский район","Государственное","Городское подчинение: Управление профессионального образования","Образовательное учреждение среднего профессионального образования","Колледж","(499) 150-55-02",,"info@kp11.ru","37,491979","55,86074","87029125"
"209","Государственное бюджетное образовательное  учреждение среднего профессионального образования города Москвы Колледж индустрии гостеприимства и менеджмента № 23","107564, г. Москва, Погонный проезд,  д. 5","Восточный административный округ","район Богородское","Государственное","Городское подчинение: Управление профессионального образования","Образовательное учреждение среднего профессионального образования","Колледж","963-15-53",,"23@prof.educom.ru","37,713997","55,786264","87029215"
"210","Государственное бюджетное образовательное учреждение среднего профессионального образования города Москвы Политехнический колледж № 47 имени В.Г. Федорова","125371, г. Москва, Волоколамское шоссе, дом 112, корп. 3","Северо-Западный административный округ","район Покровское-Стрешнево","Государственное","Городское подчинение: Управление профессионального образования","Образовательное учреждение среднего профессионального образования","Колледж","(495) 497-65-87; (495) 492-64-75; (495) 493-92-65; (495) 493-33-73","k47.mskcollege.ru/","47@prof.educom.ru","37,423242","55,830213","87029216"
"211","Государственное бюджетное образовательное учреждение среднего профессионального образования города Москвы "Московский политехнический колледж"","111250, Москва, Красноказарменная ул., д. 10-а","Юго-Восточный административный округ","район Лефортово","Государственное","Городское подчинение: Управление профессионального образования","Образовательное учреждение среднего профессионального образования","Колледж","(495) 361-07-01","mpc.mskcollege.ru","76@prof.educom.ru","37,69762","55,757031","87029220"
"212","Государственное бюджетное образовательное учреждение среднего профессионального образования города Москвы Московский технико-экономический колледж","105082 г. Москва, Переведеновский пер., д. 2, стр. 4","Центральный административный округ","Басманный район","Государственное","Городское подчинение: Управление профессионального образования","Образовательное учреждение среднего профессионального образования","Колледж","(499) 261-14-86",,"63@prof.educom.ru","37,683356","55,776145","87029221"
"213","Государственное бюджетное образовательное учреждение среднего профессионального образования города Москвы Московский технико-экономический колледж","105082 г. Москва, Переведеновский пер., д. 2, стр. 4","Центральный административный округ","Басманный район","Государственное","Городское подчинение: Управление профессионального образования","Образовательное учреждение среднего профессионального образования","Колледж","(499) 261-14-86",,"63@prof.educom.ru","37,683818","55,776289","87029222"
"214","Государственное автономное образовательное учреждение среднего профессионального образования города Москвы Политехнический колледж № 8 имени дважды Героя Советского Союза И.Ф. Павлова","125284, г. Москва, 1-й Боткинский проезд, дом 7а","Северный административный округ","район Беговой","Государственное","Городское подчинение: Управление профессионального образования","Образовательное учреждение среднего профессионального образования","Колледж","(495) 485-72-18; (495) 485-72-22",,"08@prof.educom.ru","37,544301","55,8886","87029285"
"215","Государственное автономное образовательное учреждение среднего профессионального образования города Москвы Политехнический колледж № 8 имени дважды Героя Советского Союза И.Ф. Павлова","125284, г. Москва, 1-й Боткинский проезд, дом 7а","Северный административный округ","район Беговой","Государственное","Городское подчинение: Управление профессионального образования","Образовательное учреждение среднего профессионального образования","Колледж","(495) 485-72-18; (495) 485-72-22",,"08@prof.educom.ru","37,544655","55,887816","87029286"
"216","Государственное автономное образовательное учреждение среднего профессионального образования города Москвы Политехнический колледж № 8 имени дважды Героя Советского Союза И.Ф. Павлова","125284, г. Москва, 1-й Боткинский проезд, дом 7а","Северный административный округ","район Беговой","Государственное","Городское подчинение: Управление профессионального образования","Образовательное учреждение среднего профессионального образования","Колледж","(495) 485-72-18; (495) 485-72-22",,"08@prof.educom.ru","37,544813","55,888408","87029287"
"217","Государственное автономное образовательное учреждение среднего профессионального образования города Москвы Политехнический колледж № 8 имени дважды Героя Советского Союза И.Ф. Павлова","125284, г. Москва, 1-й Боткинский проезд, дом 7а","Северный административный округ","район Беговой","Государственное","Городское подчинение: Управление профессионального образования","Образовательное учреждение среднего профессионального образования","Колледж","(495) 485-72-18; (495) 485-72-22",,"08@prof.educom.ru","37,568388","55,796306","87029288"
"218","Государственное автономное образовательное учреждение среднего профессионального образования города Москвы Политехнический колледж № 8 имени дважды Героя Советского Союза И.Ф. Павлова","125284, г. Москва, 1-й Боткинский проезд, дом 7а","Северный административный округ","район Беговой","Государственное","Городское подчинение: Управление профессионального образования","Образовательное учреждение среднего профессионального образования","Колледж","(495) 485-72-18; (495) 485-72-22",,"08@prof.educom.ru","37,5466","55,776895","87029289"
"219","Государственное автономное образовательное учреждение среднего профессионального образования города Москвы Политехнический колледж № 8 имени дважды Героя Советского Союза И.Ф. Павлова","125284, г. Москва, 1-й Боткинский проезд, дом 7а","Северный административный округ","район Беговой","Государственное","Городское подчинение: Управление профессионального образования","Образовательное учреждение среднего профессионального образования","Колледж","(495) 485-72-18; (495) 485-72-22",,"08@prof.educom.ru","37,547328","55,776343","87029290"
"220","Государственное автономное образовательное учреждение среднего профессионального образования города Москвы Политехнический колледж № 8 имени дважды Героя Советского Союза И.Ф. Павлова","125284, г. Москва, 1-й Боткинский проезд, дом 7а","Северный административный округ","район Беговой","Государственное","Городское подчинение: Управление профессионального образования","Образовательное учреждение среднего профессионального образования","Колледж","(495) 485-72-18; (495) 485-72-22",,"08@prof.educom.ru","37,556291","55,783656","87029291"
"221","Государственное автономное образовательное учреждение среднего профессионального образования города Москвы Политехнический колледж № 8 имени дважды Героя Советского Союза И.Ф. Павлова","125284, г. Москва, 1-й Боткинский проезд, дом 7а","Северный административный округ","район Беговой","Государственное","Городское подчинение: Управление профессионального образования","Образовательное учреждение среднего профессионального образования","Колледж","(495) 485-72-18; (495) 485-72-22",,"08@prof.educom.ru","37,62172","55,79585","87029292"
"222","Государственное автономное образовательное учреждение среднего профессионального образования города Москвы Политехнический колледж № 8 имени дважды Героя Советского Союза И.Ф. Павлова","125284, г. Москва, 1-й Боткинский проезд, дом 7а","Северный административный округ","район Беговой","Государственное","Городское подчинение: Управление профессионального образования","Образовательное учреждение среднего профессионального образования","Колледж","(495) 485-72-18; (495) 485-72-22",,"08@prof.educom.ru","37,621291","55,795948","87029293"
"223","Государственное автономное образовательное учреждение среднего профессионального образования города Москвы Политехнический колледж № 8 имени дважды Героя Советского Союза И.Ф. Павлова","125284, г. Москва, 1-й Боткинский проезд, дом 7а","Северный административный округ","район Беговой","Государственное","Городское подчинение: Управление профессионального образования","Образовательное учреждение среднего профессионального образования","Колледж","(495) 485-72-18; (495) 485-72-22",,"08@prof.educom.ru","37,55526","55,781552","87029294"
"224","Государственное бюджетное образовательное учреждение среднего профессионального образования города Москвы Коммерческо-банковский колледж № 6","123557 г. Москва, ул. Пресненский Вал, д. 15, стр. 1","Центральный административный округ","Красносельский район","Государственное","Городское подчинение: Управление профессионального образования","Образовательное учреждение среднего профессионального образования","Колледж","(499) 253-59-31","k06.mskcollege.ru","06@prof.educom.ru","37,63889","55,774474","87029459"
"225","Государственное бюджетное образовательное учреждение среднего профессионального образования города Москвы Коммерческо-банковский колледж № 6","123557 г. Москва, ул. Пресненский Вал, д. 15, стр. 1","Центральный административный округ","Красносельский район","Государственное","Городское подчинение: Управление профессионального образования","Образовательное учреждение среднего профессионального образования","Колледж","(499) 253-59-31","k06.mskcollege.ru","06@prof.educom.ru","37,566172","55,770704","87029460"
"226","Государственное бюджетное образовательное учреждение среднего профессионального образования города Москвы Коммерческо-банковский колледж № 6","123557 г. Москва, ул. Пресненский Вал, д. 15, стр. 1","Центральный административный округ","Красносельский район","Государственное","Городское подчинение: Управление профессионального образования","Образовательное учреждение среднего профессионального образования","Колледж","(499) 253-59-31","k06.mskcollege.ru","06@prof.educom.ru","37,639601","55,774865","87029461"
"227","Государственное бюджетное образовательное учреждение среднего профессионального образования города Москвы Колледж ландшафтного дизайна № 18","105568, г. Москва, ул. Чечулина, д. 3, корп. 1","Восточный административный округ","район Ивановское","Государственное","Городское подчинение: Управление профессионального образования","Образовательное учреждение среднего профессионального образования","Колледж","(499) 164-69-52","k18.mskcollege.ru","18@prof.educom.ru","37,798813","55,797372","87029522"
"228","Государственное бюджетное образовательное учреждение среднего профессионального образования города Москвы Колледж ландшафтного дизайна № 18","105568, г. Москва, ул. Чечулина, д. 3, корп. 1","Восточный административный округ","район Ивановское","Государственное","Городское подчинение: Управление профессионального образования","Образовательное учреждение среднего профессионального образования","Колледж","(499) 164-69-52","k18.mskcollege.ru","18@prof.educom.ru","37,793838","55,755979","87029523"
"229","Государственное бюджетное образовательное учреждение среднего профессионального образования города Москвы Колледж автомотизации и информационных технологий № 20","105037, г. Москва, ул. 1-я Парковая,  д. 12","Восточный административный округ","район Измайлово","Государственное","Городское подчинение: Управление профессионального образования","Образовательное учреждение среднего профессионального образования","Колледж","(499) 163-40-83",,"20@prof.educom.ru","37,778526","55,790924","87029524"
"230","Государственное бюджетное образовательное учреждение среднего профессионального образования города Москвы Колледж автомотизации и информационных технологий № 20","105037, г. Москва, ул. 1-я Парковая,  д. 12","Восточный административный округ","район Измайлово","Государственное","Городское подчинение: Управление профессионального образования","Образовательное учреждение среднего профессионального образования","Колледж","(499) 163-40-83",,"20@prof.educom.ru","37,788445","55,804869","87029525"
"231","Государственное бюджетное образовательное учреждение среднего профессионального образования города Москвы Колледж автомотизации и информационных технологий № 20","105037, г. Москва, ул. 1-я Парковая,  д. 12","Восточный административный округ","район Измайлово","Государственное","Городское подчинение: Управление профессионального образования","Образовательное учреждение среднего профессионального образования","Колледж","(499) 163-40-83",,"20@prof.educom.ru","37,70705","55,816705","87029526"
"232","Государственное бюджетное образовательное учреждение среднего профессионального образования города Москвы Технологический колледж № 21","107143 г. Москва, ул. Вербная, д. 4, стр. 1","Восточный административный округ","район Метрогородок","Государственное","Городское подчинение: Управление профессионального образования","Образовательное учреждение среднего профессионального образования","Колледж","(499) 160-14-33; (499) 160-03-30","k21.mskcollege.ru","21@prof.educom.ru","37,771895","55,801888","87029527"
"233","Государственное бюджетное образовательное учреждение среднего профессионального образования города Москвы Технологический колледж № 21","107143 г. Москва, ул. Вербная, д. 4, стр. 1","Восточный административный округ","район Метрогородок","Государственное","Городское подчинение: Управление профессионального образования","Образовательное учреждение среднего профессионального образования","Колледж","(499) 160-14-33; (499) 160-03-30","k21.mskcollege.ru","21@prof.educom.ru","37,733397","55,815549","87029528"
"234","Государственное бюджетное образовательное учреждение среднего профессионального образования города Москвы Строительный колледж № 26","109559, г. Москва, ул. Цимлянская, д. 7, стр. 1","Юго-Восточный административный округ","район Люблино","Государственное","Городское подчинение: Управление профессионального образования","Образовательное учреждение среднего профессионального образования","Колледж","(495) 673-51-90; (495) 673-30-00; (495) 673-15-96; (495) 673-34-93; (495) 673-14-90","k26.mskcollege.ru/","26@prof.educom.ru","37,770455","55,669364","87029529"
"235","Государственное бюджетное образовательное учреждение среднего профессионального образования города Москвы Строительный колледж № 26","109559, г. Москва, ул. Цимлянская, д. 7, стр. 1","Юго-Восточный административный округ","район Люблино","Государственное","Городское подчинение: Управление профессионального образования","Образовательное учреждение среднего профессионального образования","Колледж","(495) 673-51-90; (495) 673-30-00; (495) 673-15-96; (495) 673-34-93; (495) 673-14-90","k26.mskcollege.ru/","26@prof.educom.ru","37,679865","55,703877","87029530"
"236","Государственное бюджетное образовательное учреждение среднего профессионального образования города Москвы Строительный колледж № 26","109559, г. Москва, ул. Цимлянская, д. 7, стр. 1","Юго-Восточный административный округ","район Люблино","Государственное","Городское подчинение: Управление профессионального образования","Образовательное учреждение среднего профессионального образования","Колледж","(495) 673-51-90; (495) 673-30-00; (495) 673-15-96; (495) 673-34-93; (495) 673-14-90","k26.mskcollege.ru/","26@prof.educom.ru","37,680271","55,704191","87029531"
"237","Государственное бюджетное образовательное учреждение среднего профессионального образования города Москвы Строительный колледж № 26","109559, г. Москва, ул. Цимлянская, д. 7, стр. 1","Юго-Восточный административный округ","район Люблино","Государственное","Городское подчинение: Управление профессионального образования","Образовательное учреждение среднего профессионального образования","Колледж","(495) 673-51-90; (495) 673-30-00; (495) 673-15-96; (495) 673-34-93; (495) 673-14-90","k26.mskcollege.ru/","26@prof.educom.ru","37,68135","55,704517","87029532"
"238","Государственное бюджетное образовательное учреждение среднего профессионального образования города Москвы Строительный колледж № 26","109559, г. Москва, ул. Цимлянская, д. 7, стр. 1","Юго-Восточный административный округ","район Люблино","Государственное","Городское подчинение: Управление профессионального образования","Образовательное учреждение среднего профессионального образования","Колледж","(495) 673-51-90; (495) 673-30-00; (495) 673-15-96; (495) 673-34-93; (495) 673-14-90","k26.mskcollege.ru/","26@prof.educom.ru","37,67951","55,704474","87029533"
"239","Государственное бюджетное образовательное учреждение среднего профессионального образования города Москвы Строительный колледж № 26","109559, г. Москва, ул. Цимлянская, д. 7, стр. 1","Юго-Восточный административный округ","район Люблино","Государственное","Городское подчинение: Управление профессионального образования","Образовательное учреждение среднего профессионального образования","Колледж","(495) 673-51-90; (495) 673-30-00; (495) 673-15-96; (495) 673-34-93; (495) 673-14-90","k26.mskcollege.ru/","26@prof.educom.ru","37,678806","55,704431","87029534"
"240","Государственное бюджетное образовательное учреждение среднего профессионального образования города Москвы Строительный колледж № 26","109559, г. Москва, ул. Цимлянская, д. 7, стр. 1","Юго-Восточный административный округ","район Люблино","Государственное","Городское подчинение: Управление профессионального образования","Образовательное учреждение среднего профессионального образования","Колледж","(495) 673-51-90; (495) 673-30-00; (495) 673-15-96; (495) 673-34-93; (495) 673-14-90","k26.mskcollege.ru/","26@prof.educom.ru","37,679079","55,704879","87029535"
"241","Государственное бюджетное образовательное учреждение среднего профессионального образования города Москвы Строительный колледж № 26","109559, г. Москва, ул. Цимлянская, д. 7, стр. 1","Юго-Восточный административный округ","район Люблино","Государственное","Городское подчинение: Управление профессионального образования","Образовательное учреждение среднего профессионального образования","Колледж","(495) 673-51-90; (495) 673-30-00; (495) 673-15-96; (495) 673-34-93; (495) 673-14-90","k26.mskcollege.ru/","26@prof.educom.ru","37,741371","55,739849","87029536"
"242","Государственное бюджетное образовательное учреждение среднего профессионального образования города Москвы Строительный колледж № 26","109559, г. Москва, ул. Цимлянская, д. 7, стр. 1","Юго-Восточный административный округ","район Люблино","Государственное","Городское подчинение: Управление профессионального образования","Образовательное учреждение среднего профессионального образования","Колледж","(495) 673-51-90; (495) 673-30-00; (495) 673-15-96; (495) 673-34-93; (495) 673-14-90","k26.mskcollege.ru/","26@prof.educom.ru","37,7575","55,736322","87029537"
"243","Государственное бюджетное образовательное учреждение среднего профессионального образования города Москвы Строительный колледж № 26","109559, г. Москва, ул. Цимлянская, д. 7, стр. 1","Юго-Восточный административный округ","район Люблино","Государственное","Городское подчинение: Управление профессионального образования","Образовательное учреждение среднего профессионального образования","Колледж","(495) 673-51-90; (495) 673-30-00; (495) 673-15-96; (495) 673-34-93; (495) 673-14-90","k26.mskcollege.ru/","26@prof.educom.ru","37,75132","55,694324","87029538"
"244","Государственное бюджетное образовательное учреждение среднего профессионального образования города Москвы Строительный колледж № 26","109559, г. Москва, ул. Цимлянская, д. 7, стр. 1","Юго-Восточный административный округ","район Люблино","Государственное","Городское подчинение: Управление профессионального образования","Образовательное учреждение среднего профессионального образования","Колледж","(495) 673-51-90; (495) 673-30-00; (495) 673-15-96; (495) 673-34-93; (495) 673-14-90","k26.mskcollege.ru/","26@prof.educom.ru","37,769893","55,668661","87029539"
"245","Государственное бюджетное образовательное учреждение среднего профессионального образования города Москвы Строительный колледж № 26","109559, г. Москва, ул. Цимлянская, д. 7, стр. 1","Юго-Восточный административный округ","район Люблино","Государственное","Городское подчинение: Управление профессионального образования","Образовательное учреждение среднего профессионального образования","Колледж","(495) 673-51-90; (495) 673-30-00; (495) 673-15-96; (495) 673-34-93; (495) 673-14-90","k26.mskcollege.ru/","26@prof.educom.ru","37,768126","55,668499","87029540"
"246","Государственное бюджетное образовательное учреждение среднего профессионального образования города Москвы Пищевой колледж № 33","115404 г. Москва, ул. 6-ая Радиальная, д. 10","Южный административный округ","район Царицыно","Государственное","Городское подчинение: Управление профессионального образования","Образовательное учреждение среднего профессионального образования","Колледж","327-52-35","k33.mskcollege.ru/","33@prof.educom.ru","37,613927","55,614566","87029541"
"247","Государственное бюджетное образовательное учреждение среднего профессионального образования города Москвы Технологический колледж № 34","115230 г. Москва, ул. Нагатинская д. 4, к. 1","Южный административный округ","район Нагатино-Садовники","Государственное","Городское подчинение: Управление профессионального образования","Образовательное учреждение среднего профессионального образования","Колледж","633-29-08",,"34@prof.educom.ru","37,623943","55,628854","87029542"
"248","Государственное бюджетное образовательное учреждение среднего профессионального образования города Москвы Технологический колледж № 34","115230 г. Москва, ул. Нагатинская д. 4, к. 1","Южный административный округ","район Нагатино-Садовники","Государственное","Городское подчинение: Управление профессионального образования","Образовательное учреждение среднего профессионального образования","Колледж","633-29-08",,"34@prof.educom.ru","37,623194","55,628601","87029543"
"249","Государственное бюджетное образовательное учреждение среднего профессионального образования города Москвы Технологический колледж № 34","115230 г. Москва, ул. Нагатинская д. 4, к. 1","Южный административный округ","район Нагатино-Садовники","Государственное","Городское подчинение: Управление профессионального образования","Образовательное учреждение среднего профессионального образования","Колледж","633-29-08",,"34@prof.educom.ru","37,647516","55,723796","87029544"
"250","Государственное бюджетное образовательное учреждение среднего профессионального образования города Москвы Технологический колледж № 34","115230 г. Москва, ул. Нагатинская д. 4, к. 1","Южный административный округ","район Нагатино-Садовники","Государственное","Городское подчинение: Управление профессионального образования","Образовательное учреждение среднего профессионального образования","Колледж","633-29-08",,"34@prof.educom.ru","37,644808","55,679172","87029545"
"251","Государственное бюджетное образовательное учреждение среднего профессионального образования города Москвы Политехнический колледж № 42","121471 г. Москва, ул. Гродненская д. 5","Западный административный округ","Можайский район","Государственное","Городское подчинение: Управление профессионального образования","Образовательное учреждение среднего профессионального образования","Колледж","(499) 749-88-58",,"42@prof.educom.ru","37,422892","55,712006","87029546"
"252","Государственное бюджетное образовательное учреждение среднего профессионального образования города Москвы Политехнический колледж № 42","121471 г. Москва, ул. Гродненская д. 5","Западный административный округ","Можайский район","Государственное","Городское подчинение: Управление профессионального образования","Образовательное учреждение среднего профессионального образования","Колледж","(499) 749-88-58",,"42@prof.educom.ru","37,386357","55,723447","87029547"
"253","Государственное бюджетное образовательное учреждение среднего профессионального образования города Москвы Политехнический колледж № 42","121471 г. Москва, ул. Гродненская д. 5","Западный административный округ","Можайский район","Государственное","Городское подчинение: Управление профессионального образования","Образовательное учреждение среднего профессионального образования","Колледж","(499) 749-88-58",,"42@prof.educom.ru","37,385554","55,723864","87029548"
"254","Государственное бюджетное образовательное учреждение среднего профессионального образования города Москвы Политехнический колледж № 42","121471 г. Москва, ул. Гродненская д. 5","Западный административный округ","Можайский район","Государственное","Городское подчинение: Управление профессионального образования","Образовательное учреждение среднего профессионального образования","Колледж","(499) 749-88-58",,"42@prof.educom.ru","37,435497","55,717671","87029549"
"255","Государственное бюджетное образовательное учреждение среднего профессионального образования города Москвы Колледж малого бизнеса № 48","123308, г. Москва, ул. Мневники, д. 4","Северо-Западный административный округ","район Хорошёво-Мнёвники","Государственное","Городское подчинение: Управление профессионального образования","Образовательное учреждение среднего профессионального образования","Колледж","(495) 948-05-90",,"48@prof.educom.ru","37,500465","55,778085","87029550"
"256","Государственное бюджетное образовательное учреждение среднего профессионального образования города Москвы Колледж малого бизнеса № 48","123308, г. Москва, ул. Мневники, д. 4","Северо-Западный административный округ","район Хорошёво-Мнёвники","Государственное","Городское подчинение: Управление профессионального образования","Образовательное учреждение среднего профессионального образования","Колледж","(495) 948-05-90",,"48@prof.educom.ru","37,498909","55,774577","87029551"
"257","Государственное автономное образовательное учреждение среднего профессионального образования города Москвы Технологический колледж № 24","105484, г. Москва,  ул. 16-я Парковая,  д. 20","Восточный административный округ","район Измайлово","Государственное","Городское подчинение: Управление профессионального образования","Образовательное учреждение среднего профессионального образования","Колледж","(499) 461-52-19","k24.mskcollege.ru/","24@prof.educom.ru","37,675271","55,787863","87029552"
"258","Государственное автономное образовательное учреждение среднего профессионального образования города Москвы Технологический колледж № 24","105484, г. Москва,  ул. 16-я Парковая,  д. 20","Восточный административный округ","район Измайлово","Государственное","Городское подчинение: Управление профессионального образования","Образовательное учреждение среднего профессионального образования","Колледж","(499) 461-52-19","k24.mskcollege.ru/","24@prof.educom.ru","37,7991","55,747814","87029553"
"259","Государственное бюджетное образовательное учреждение среднего профессионального образования города Москвы Колледж автоматизации и радиоэлектроники № 27 имени П.М.Вострухина","109428, г. Москва, Рязанский проспект, д. 8, стр. 1, стр. 2","Юго-Восточный административный округ","Рязанский район","Государственное","Городское подчинение: Управление профессионального образования","Образовательное учреждение среднего профессионального образования","Колледж","(495) 355-24-38; (495) 355-24-82; (495) 355-25-00","k27.mskcollege.ru/","27@prof.educom.ru","37,755421","55,726737","87029717"
"260","Государственное бюджетное образовательное учреждение среднего профессионального образования города Москвы Колледж автоматизации и радиоэлектроники № 27 имени П.М.Вострухина","109428, г. Москва, Рязанский проспект, д. 8, стр. 1, стр. 2","Юго-Восточный административный округ","Рязанский район","Государственное","Городское подчинение: Управление профессионального образования","Образовательное учреждение среднего профессионального образования","Колледж","(495) 355-24-38; (495) 355-24-82; (495) 355-25-00","k27.mskcollege.ru/","27@prof.educom.ru","37,756129","55,726732","87029718"
"261","Государственное бюджетное образовательное учреждение среднего профессионального образования города Москвы Колледж автоматизации и радиоэлектроники № 27 имени П.М.Вострухина","109428, г. Москва, Рязанский проспект, д. 8, стр. 1, стр. 2","Юго-Восточный административный округ","Рязанский район","Государственное","Городское подчинение: Управление профессионального образования","Образовательное учреждение среднего профессионального образования","Колледж","(495) 355-24-38; (495) 355-24-82; (495) 355-25-00","k27.mskcollege.ru/","27@prof.educom.ru","37,815731","55,64223","87029719"
"262","Государственное бюджетное образовательное учреждение среднего профессионального образования города Москвы Колледж автоматизации и радиоэлектроники № 27 имени П.М.Вострухина","109428, г. Москва, Рязанский проспект, д. 8, стр. 1, стр. 2","Юго-Восточный административный округ","Рязанский район","Государственное","Городское подчинение: Управление профессионального образования","Образовательное учреждение среднего профессионального образования","Колледж","(495) 355-24-38; (495) 355-24-82; (495) 355-25-00","k27.mskcollege.ru/","27@prof.educom.ru","37,6803","55,715486","87029720"
"263","Государственное бюджетное образовательное учреждение среднего профессионального образования города Москвы Колледж автоматизации и радиоэлектроники № 27 имени П.М.Вострухина","109428, г. Москва, Рязанский проспект, д. 8, стр. 1, стр. 2","Юго-Восточный административный округ","Рязанский район","Государственное","Городское подчинение: Управление профессионального образования","Образовательное учреждение среднего профессионального образования","Колледж","(495) 355-24-38; (495) 355-24-82; (495) 355-25-00","k27.mskcollege.ru/","27@prof.educom.ru","37,816004","55,642424","87029721"
"264","Государственное бюджетное образовательное учреждение среднего профессионального образования города Москвы Политехнический колледж № 31","115280 г. Москва, ул. Автозаводская д. 25","Южный административный округ","Даниловский район","Государственное","Городское подчинение: Управление профессионального образования","Образовательное учреждение среднего профессионального образования","Колледж","(495) 952-10-60","k31.mskcollege.ru/","31@prof.educom.ru","37,606258","55,715448","87029722"
"265","Государственное бюджетное образовательное учреждение среднего профессионального образования города Москвы Политехнический колледж № 31","115280 г. Москва, ул. Автозаводская д. 25","Южный административный округ","Даниловский район","Государственное","Городское подчинение: Управление профессионального образования","Образовательное учреждение среднего профессионального образования","Колледж","(495) 952-10-60","k31.mskcollege.ru/","31@prof.educom.ru","37,606258","55,715448","87029723"
"266","Государственное бюджетное образовательное учреждение среднего профессионального образования города Москвы Политехнический колледж № 31","115280 г. Москва, ул. Автозаводская д. 25","Южный административный округ","Даниловский район","Государственное","Городское подчинение: Управление профессионального образования","Образовательное учреждение среднего профессионального образования","Колледж","(495) 952-10-60","k31.mskcollege.ru/","31@prof.educom.ru","37,592244","55,70437","87029724"
"267","Государственное бюджетное образовательное учреждение среднего профессионального образования города Москвы Политехнический колледж № 31","115280 г. Москва, ул. Автозаводская д. 25","Южный административный округ","Даниловский район","Государственное","Городское подчинение: Управление профессионального образования","Образовательное учреждение среднего профессионального образования","Колледж","(495) 952-10-60","k31.mskcollege.ru/","31@prof.educom.ru","37,674147","55,643942","87029725"
"268","Государственное бюджетное образовательное учреждение среднего профессионального образования города Москвы Политехнический колледж № 31","115280 г. Москва, ул. Автозаводская д. 25","Южный административный округ","Даниловский район","Государственное","Городское подчинение: Управление профессионального образования","Образовательное учреждение среднего профессионального образования","Колледж","(495) 952-10-60","k31.mskcollege.ru/","31@prof.educom.ru","37,636314","55,703789","87029726"
"269","Государственное бюджетное образовательное учреждение среднего профессионального образования города Москвы Политехнический колледж № 31","115280 г. Москва, ул. Автозаводская д. 25","Южный административный округ","Даниловский район","Государственное","Городское подчинение: Управление профессионального образования","Образовательное учреждение среднего профессионального образования","Колледж","(495) 952-10-60","k31.mskcollege.ru/","31@prof.educom.ru","37,637414","55,703573","87029727"
"270","Государственное бюджетное образовательное учреждение среднего профессионального образования города Москвы Колледж сферы услуг № 32","119071 г. Москва, ул. Орджоникидзе, д. 15, стр. 1","Южный административный округ","Донской район","Государственное","Городское подчинение: Управление профессионального образования","Образовательное учреждение среднего профессионального образования","Колледж","(495) 236-72-46","k32.mskcollege.ru","32@prof.educom.ru","37,609516","55,717259","87029728"
"271","Государственное бюджетное образовательное учреждение среднего профессионального образования города Москвы Колледж сферы услуг № 32","119071 г. Москва, ул. Орджоникидзе, д. 15, стр. 1","Южный административный округ","Донской район","Государственное","Городское подчинение: Управление профессионального образования","Образовательное учреждение среднего профессионального образования","Колледж","(495) 236-72-46","k32.mskcollege.ru","32@prof.educom.ru","37,644665","55,713658","87029729"
"272","Государственное бюджетное образовательное учреждение среднего профессионального образования города Москвы Колледж метростроя № 53 имени Героя Советского Союза М.Ф. Панова","129336, г. Москва,  Стартовая ул., д. 1, корп. 2","Северо-Восточный административный округ","Лосиноостровский район","Государственное","Городское подчинение: Управление профессионального образования","Образовательное учреждение среднего профессионального образования","Колледж","474-41-65","k53.mskcollege.ru/","53@prof.educom.ru","37,708946","55,886214","87029730"
"273","Государственное бюджетное образовательное учреждение среднего профессионального образования города Москвы Колледж метростроя № 53 имени Героя Советского Союза М.Ф. Панова","129336, г. Москва,  Стартовая ул., д. 1, корп. 2","Северо-Восточный административный округ","Лосиноостровский район","Государственное","Городское подчинение: Управление профессионального образования","Образовательное учреждение среднего профессионального образования","Колледж","474-41-65","k53.mskcollege.ru/","53@prof.educom.ru","37,679947","55,855809","87029731"
"274","Государственное бюджетное образовательное учреждение среднего профессионального образования города Москвы Колледж метростроя № 53 имени Героя Советского Союза М.Ф. Панова","129336, г. Москва,  Стартовая ул., д. 1, корп. 2","Северо-Восточный административный округ","Лосиноостровский район","Государственное","Городское подчинение: Управление профессионального образования","Образовательное учреждение среднего профессионального образования","Колледж","474-41-65","k53.mskcollege.ru/","53@prof.educom.ru","37,709402","55,88659","87029732"
"275","Государственное бюджетное образовательное учреждение среднего профессионального образования города Москвы Колледж связи № 54","115172 г. Москва, ул. Большие Каменщики, д. 7","Центральный административный округ","Басманный район","Государственное","Городское подчинение: Управление профессионального образования","Образовательное учреждение среднего профессионального образования","Колледж","(499) 261-03-51",,"54@prof.educom.ru","37,751052","55,672636","87029733"
"276","Государственное бюджетное образовательное учреждение среднего профессионального образования города Москвы Колледж связи № 54","115172 г. Москва, ул. Большие Каменщики, д. 7","Центральный административный округ","Басманный район","Государственное","Городское подчинение: Управление профессионального образования","Образовательное учреждение среднего профессионального образования","Колледж","(499) 261-03-51",,"54@prof.educom.ru","37,679891","55,761268","87029734"
"277","Государственное бюджетное образовательное учреждение среднего профессионального образования города Москвы Колледж связи № 54","115172 г. Москва, ул. Большие Каменщики, д. 7","Центральный административный округ","Басманный район","Государственное","Городское подчинение: Управление профессионального образования","Образовательное учреждение среднего профессионального образования","Колледж","(499) 261-03-51",,"54@prof.educom.ru","37,751052","55,672636","87029735"
"278","Государственное бюджетное образовательное учреждение среднего профессионального образования города Москвы Педагогический колледж № 1 имени К.Д. Ушинского","115184 г. Москва, ул. Б. Ордынка, 47/7","Центральный административный округ","район Замоскворечье","Государственное","Городское подчинение: Управление профессионального образования","Образовательное учреждение среднего профессионального образования","Колледж","959-17-33","pk01.mskcollege.ru/","pk1@prof.educom.ru","37,625302","55,734308","87029825"
"279","Государственное бюджетное образовательное учреждение среднего профессионального образования города Москвы Колледж городской инфраструктуры и строительства № 1","115184 г. Москва, ул. Малая Ордынка, д. 29","Центральный административный округ","район Замоскворечье","Государственное","Городское подчинение: Управление профессионального образования","Образовательное учреждение среднего профессионального образования","Колледж","670-50-86","k01.mskcollege.ru/","01@prof.educom.ru","37,625877","55,734105","87029918"
"280","Государственное бюджетное образовательное учреждение среднего профессионального образования города Москвы Колледж городской инфраструктуры и строительства № 1","115184 г. Москва, ул. Малая Ордынка, д. 29","Центральный административный округ","район Замоскворечье","Государственное","Городское подчинение: Управление профессионального образования","Образовательное учреждение среднего профессионального образования","Колледж","670-50-86","k01.mskcollege.ru/","01@prof.educom.ru","37,681068","55,743234","87029919"
"281","Государственное бюджетное образовательное учреждение среднего профессионального образования города Москвы Колледж городской инфраструктуры и строительства № 1","115184 г. Москва, ул. Малая Ордынка, д. 29","Центральный административный округ","район Замоскворечье","Государственное","Городское подчинение: Управление профессионального образования","Образовательное учреждение среднего профессионального образования","Колледж","670-50-86","k01.mskcollege.ru/","01@prof.educom.ru","37,68165","55,74362","87029920"
"282","Государственное бюджетное образовательное учреждение среднего профессионального образования города Москвы Колледж городской инфраструктуры и строительства № 1","115184 г. Москва, ул. Малая Ордынка, д. 29","Центральный административный округ","район Замоскворечье","Государственное","Городское подчинение: Управление профессионального образования","Образовательное учреждение среднего профессионального образования","Колледж","670-50-86","k01.mskcollege.ru/","01@prof.educom.ru","37,684059","55,736391","87029921"
"283","Государственное бюджетное образовательное учреждение среднего профессионального образования города Москвы Колледж городской инфраструктуры и строительства № 1","115184 г. Москва, ул. Малая Ордынка, д. 29","Центральный административный округ","район Замоскворечье","Государственное","Городское подчинение: Управление профессионального образования","Образовательное учреждение среднего профессионального образования","Колледж","670-50-86","k01.mskcollege.ru/","01@prof.educom.ru","37,684201","55,736755","87029922"
"284","Государственное бюджетное образовательное учреждение среднего профессионального образования города Москвы Экономико-технологический Колледж № 22","105203, г. Москва, улица 14-я Парковая, д. 4 Б","Восточный административный округ","район Восточное Измайлово","Государственное","Городское подчинение: Управление профессионального образования","Образовательное учреждение среднего профессионального образования","Колледж","465-15-03",,"22@prof.educom.ru","37,816595","55,789968","87029999"
"285","Государственное бюджетное образовательное учреждение среднего профессионального образования города Москвы Экономико-технологический Колледж № 22","105203, г. Москва, улица 14-я Парковая, д. 4 Б","Восточный административный округ","район Восточное Измайлово","Государственное","Городское подчинение: Управление профессионального образования","Образовательное учреждение среднего профессионального образования","Колледж","465-15-03",,"22@prof.educom.ru","37,772527","55,75442","87030000"